zipcode,city,county,ziptype
73301,Austin,Travis,Unique
73344,Austin,Travis,Unique
73960,Texhoma,Sherman,Box
75001,Addison,Dallas,Standard
75002,Allen,Collin,Standard
75006,Carrollton,Dallas,Standard
75007,Carrollton,Denton,Standard
75009,Celina,Collin,Standard
75010,Carrollton,Denton,Standard
75011,Carrollton,Dallas,Box
75013,Allen,Collin,Standard
75014,Irving,Dallas,Box
75015,Irving,Dallas,Box
75016,Irving,Dallas,Box
75017,Irving,Dallas,Box
75019,Coppell,Dallas,Standard
75020,Denison,Grayson,Standard
75021,Denison,Grayson,Standard
75022,Mound,Denton,Standard
75023,Plano,Collin,Standard
75024,Plano,Collin,Standard
75025,Plano,Collin,Standard
75026,Plano,Collin,Box
75027,Mound,Denton,Box
75028,Mound,Denton,Standard
75029,Lewisville,Denton,Box
75030,Rowlett,Dallas,Box
75032,Rockwall,Rockwall,Standard
75033,Frisco,Denton,Standard
75034,Frisco,Denton,Standard
75035,Frisco,Collin,Standard
75036,Frisco,Denton,Standard
75038,Irving,Dallas,Standard
75039,Irving,Dallas,Standard
75040,Garland,Dallas,Standard
75041,Garland,Dallas,Standard
75042,Garland,Dallas,Standard
75043,Garland,Dallas,Standard
75044,Garland,Dallas,Standard
75045,Garland,Dallas,Box
75046,Garland,Dallas,Box
75047,Garland,Dallas,Box
75048,Sachse,Dallas,Standard
75049,Garland,Dallas,Box
75050,Prairie,Dallas,Standard
75051,Prairie,Dallas,Standard
75052,Prairie,Dallas,Standard
75053,Prairie,Dallas,Box
75054,Prairie,Dallas,Standard
75056,Colony,Denton,Standard
75057,Lewisville,Denton,Standard
75058,Gunter,Grayson,Standard
75059,Irving,Dallas,Unique
75060,Irving,Dallas,Standard
75061,Irving,Dallas,Standard
75062,Irving,Dallas,Standard
75063,Irving,Dallas,Standard
75064,Irving,Dallas,Unique
75065,Dallas,Denton,Standard
75067,Lewisville,Denton,Standard
75068,Elm,Denton,Standard
75069,Mckinney,Collin,Standard
75070,Mckinney,Collin,Standard
75071,Mckinney,Collin,Standard
75072,Mckinney,Collin,Standard
75074,Plano,Collin,Standard
75075,Plano,Collin,Standard
75076,Pottsboro,Grayson,Standard
75077,Lewisville,Denton,Standard
75078,Prosper,Collin,Standard
75080,Richardson,Dallas,Standard
75081,Richardson,Dallas,Standard
75082,Richardson,Dallas,Standard
75083,Richardson,Dallas,Box
75085,Richardson,Dallas,Box
75086,Plano,Collin,Box
75087,Rockwall,Rockwall,Standard
75088,Rowlett,Dallas,Standard
75089,Rowlett,Dallas,Standard
75090,Sherman,Grayson,Standard
75091,Sherman,Grayson,Box
75092,Sherman,Grayson,Standard
75093,Plano,Collin,Standard
75094,Plano,Collin,Standard
75097,Weston,Collin,Box
75098,Wylie,Collin,Standard
75099,Coppell,Dallas,Unique
75101,Bardwell,Ellis,Box
75102,Barry,Navarro,Standard
75103,Canton,Zandt,Standard
75104,Hill,Dallas,Standard
75105,Chatfield,Navarro,Standard
75106,Hill,Dallas,Box
75109,Corsicana,Navarro,Standard
75110,Corsicana,Navarro,Standard
75114,Crandall,Kaufman,Standard
75115,Desoto,Dallas,Standard
75116,Duncanville,Dallas,Standard
75117,Edgewood,Zandt,Standard
75118,Elmo,Kaufman,Box
75119,Ennis,Ellis,Standard
75120,Ennis,Ellis,Box
75121,Copeville,Collin,Box
75123,Desoto,Dallas,Box
75124,Eustace,Henderson,Standard
75125,Ferris,Ellis,Standard
75126,Forney,Kaufman,Standard
75127,Fruitvale,Zandt,Standard
75132,Fate,Rockwall,Box
75134,Lancaster,Dallas,Standard
75135,Mills,Hunt,Standard
75137,Duncanville,Dallas,Standard
75138,Duncanville,Dallas,Box
75140,Saline,Zandt,Standard
75141,Hutchins,Dallas,Standard
75142,Kaufman,Kaufman,Standard
75143,Kemp,Kaufman,Standard
75144,Kerens,Navarro,Standard
75146,Lancaster,Dallas,Standard
75147,Mabank,Kaufman,Standard
75148,Malakoff,Henderson,Standard
75149,Mesquite,Dallas,Standard
75150,Mesquite,Dallas,Standard
75151,Corsicana,Navarro,Box
75152,Palmer,Ellis,Standard
75153,Powell,Navarro,Standard
75154,Oak,Ellis,Standard
75155,Rice,Navarro,Standard
75156,Mabank,Henderson,Standard
75157,Rosser,Kaufman,Box
75158,Scurry,Kaufman,Standard
75159,Seagoville,Dallas,Standard
75160,Terrell,Kaufman,Standard
75161,Terrell,Kaufman,Standard
75163,Trinidad,Henderson,Standard
75164,Josephine,Collin,Box
75165,Waxahachie,Ellis,Standard
75166,Lavon,Collin,Standard
75167,Waxahachie,Ellis,Standard
75168,Waxahachie,Ellis,Box
75169,Point,Zandt,Standard
75172,Wilmer,Dallas,Standard
75173,Nevada,Collin,Standard
75180,Springs,Dallas,Standard
75181,Mesquite,Dallas,Standard
75182,Sunnyvale,Dallas,Standard
75185,Mesquite,Dallas,Box
75187,Mesquite,Dallas,Box
75189,City,Rockwall,Standard
75201,Dallas,Dallas,Standard
75202,Dallas,Dallas,Standard
75203,Dallas,Dallas,Standard
75204,Dallas,Dallas,Standard
75205,Dallas,Dallas,Standard
75206,Dallas,Dallas,Standard
75207,Dallas,Dallas,Standard
75208,Dallas,Dallas,Standard
75209,Dallas,Dallas,Standard
75210,Dallas,Dallas,Standard
75211,Dallas,Dallas,Standard
75212,Dallas,Dallas,Standard
75214,Dallas,Dallas,Standard
75215,Dallas,Dallas,Standard
75216,Dallas,Dallas,Standard
75217,Dallas,Dallas,Standard
75218,Dallas,Dallas,Standard
75219,Dallas,Dallas,Standard
75220,Dallas,Dallas,Standard
75221,Dallas,Dallas,Box
75222,Dallas,Dallas,Box
75223,Dallas,Dallas,Standard
75224,Dallas,Dallas,Standard
75225,Dallas,Dallas,Standard
75226,Dallas,Dallas,Standard
75227,Dallas,Dallas,Standard
75228,Dallas,Dallas,Standard
75229,Dallas,Dallas,Standard
75230,Dallas,Dallas,Standard
75231,Dallas,Dallas,Standard
75232,Dallas,Dallas,Standard
75233,Dallas,Dallas,Standard
75234,Dallas,Dallas,Standard
75235,Dallas,Dallas,Standard
75236,Dallas,Dallas,Standard
75237,Dallas,Dallas,Standard
75238,Dallas,Dallas,Standard
75240,Dallas,Dallas,Standard
75241,Dallas,Dallas,Standard
75242,Dallas,Dallas,Standard
75243,Dallas,Dallas,Standard
75244,Dallas,Dallas,Standard
75246,Dallas,Dallas,Standard
75247,Dallas,Dallas,Standard
75248,Dallas,Dallas,Standard
75249,Dallas,Dallas,Standard
75250,Dallas,Dallas,Box
75251,Dallas,Dallas,Standard
75252,Dallas,Collin,Standard
75253,Dallas,Dallas,Standard
75254,Dallas,Dallas,Standard
75260,Dallas,Dallas,Standard
75261,Dallas,Dallas,Box
75262,Dallas,Dallas,Box
75263,Dallas,Dallas,Box
75264,Dallas,Dallas,Box
75265,Dallas,Dallas,Box
75266,Dallas,Dallas,Box
75267,Dallas,Dallas,Box
75270,Dallas,Dallas,Standard
75275,Dallas,Dallas,Unique
75277,Dallas,Dallas,Unique
75283,Dallas,Dallas,Unique
75284,Dallas,Dallas,Unique
75285,Dallas,Dallas,Unique
75287,Dallas,Collin,Standard
75301,Dallas,Dallas,Unique
75303,Dallas,Dallas,Unique
75312,Dallas,Dallas,Unique
75313,Dallas,Dallas,Box
75315,Dallas,Dallas,Box
75320,Dallas,Dallas,Unique
75326,Dallas,Dallas,Unique
75336,Dallas,Dallas,Box
75339,Dallas,Dallas,Box
75342,Dallas,Dallas,Box
75354,Dallas,Dallas,Box
75355,Dallas,Dallas,Box
75356,Dallas,Dallas,Box
75357,Dallas,Dallas,Box
75358,Dallas,Dallas,Unique
75359,Dallas,Dallas,Box
75360,Dallas,Dallas,Box
75367,Dallas,Dallas,Box
75368,Dallas,Dallas,Unique
75370,Dallas,Dallas,Box
75371,Dallas,Dallas,Box
75372,Dallas,Dallas,Box
75373,Dallas,Dallas,Unique
75374,Dallas,Dallas,Box
75376,Dallas,Dallas,Box
75378,Dallas,Dallas,Box
75379,Dallas,Dallas,Box
75380,Dallas,Dallas,Box
75381,Dallas,Dallas,Box
75382,Dallas,Dallas,Box
75389,Dallas,Dallas,Unique
75390,Dallas,Dallas,Unique
75391,Dallas,Dallas,Unique
75392,Dallas,Dallas,Unique
75393,Dallas,Dallas,Unique
75394,Dallas,Dallas,Unique
75395,Dallas,Dallas,Unique
75397,Dallas,Dallas,Unique
75398,Dallas,Dallas,Standard
75401,Greenville,Hunt,Standard
75402,Greenville,Hunt,Standard
75403,Greenville,Hunt,Box
75404,Greenville,Hunt,Box
75407,Princeton,Collin,Standard
75409,Anna,Collin,Standard
75410,Alba,Wood,Standard
75411,City,Lamar,Standard
75412,Bagwell,River,Standard
75413,Bailey,Fannin,Box
75414,Bells,Grayson,Standard
75415,Franklin,Delta,Standard
75416,Blossom,Lamar,Standard
75417,Bogata,River,Standard
75418,Bonham,Fannin,Standard
75420,Brashear,Hopkins,Standard
75421,Brookston,Lamar,Standard
75422,Campbell,Hunt,Standard
75423,Celeste,Hunt,Standard
75424,Ridge,Collin,Standard
75425,Chicota,Lamar,Box
75426,Clarksville,River,Standard
75428,Commerce,Hunt,Standard
75429,Commerce,Hunt,Box
75431,Como,Hopkins,Standard
75432,Cooper,Delta,Standard
75433,Cumby,Hopkins,Standard
75434,Cunningham,Lamar,Box
75435,Deport,Lamar,Standard
75436,Detroit,River,Standard
75437,Dike,Hopkins,Standard
75438,City,Fannin,Standard
75439,Ector,Fannin,Standard
75440,Emory,Rains,Standard
75441,Enloe,Delta,Box
75442,Farmersville,Collin,Standard
75443,Gober,Fannin,Box
75444,Golden,Wood,Box
75446,Grove,Fannin,Standard
75447,Ivanhoe,Fannin,Standard
75448,Klondike,Delta,Standard
75449,Ladonia,Fannin,Standard
75450,Creek,Delta,Standard
75451,Leesburg,Camp,Standard
75452,Leonard,Fannin,Standard
75453,Oak,Hunt,Standard
75454,Melissa,Collin,Standard
75455,Pleasant,Titus,Standard
75456,Pleasant,Titus,Box
75457,Vernon,Franklin,Standard
75458,Merit,Hunt,Box
75459,Howe,Grayson,Standard
75460,Paris,Lamar,Standard
75461,Paris,Lamar,Box
75462,Paris,Lamar,Standard
75468,Pattonville,Lamar,Standard
75469,Gap,Delta,Standard
75470,Petty,Lamar,Standard
75471,Pickton,Hopkins,Standard
75472,Point,Rains,Standard
75473,Powderly,Lamar,Standard
75474,Quinlan,Hunt,Standard
75475,Randolph,Fannin,Box
75476,Ravenna,Fannin,Standard
75477,Roxton,Lamar,Standard
75478,Saltillo,Hopkins,Standard
75479,Savoy,Fannin,Standard
75480,Scroggins,Franklin,Standard
75481,Bluff,Hopkins,Standard
75482,Springs,Hopkins,Standard
75483,Springs,Hopkins,Box
75485,Westminster,Collin,Box
75486,Sumner,Lamar,Standard
75487,Talco,Franklin,Standard
75488,Telephone,Fannin,Standard
75489,Bean,Grayson,Box
75490,Trenton,Fannin,Standard
75491,Whitewright,Grayson,Standard
75492,Windom,Fannin,Standard
75493,Winfield,Titus,Box
75494,Winnsboro,Wood,Standard
75495,Alstyne,Grayson,Standard
75496,City,Hunt,Standard
75497,Yantis,Wood,Standard
75501,Texarkana,Bowie,Standard
75503,Texarkana,Bowie,Standard
75504,Texarkana,Bowie,Box
75505,Texarkana,Bowie,Box
75507,Texarkana,Bowie,Unique
75550,Annona,River,Standard
75551,Atlanta,Cass,Standard
75554,Avery,River,Standard
75555,Bivins,Cass,Standard
75556,Bloomburg,Cass,Standard
75558,Cookville,Titus,Standard
75559,Kalb,Bowie,Standard
75560,Douglassville,Cass,Standard
75561,Hooks,Bowie,Standard
75562,Kildare,Cass,Box
75563,Linden,Cass,Standard
75564,Lodi,Marion,Box
75565,Leod,Cass,Box
75566,Marietta,Cass,Standard
75567,Maud,Bowie,Standard
75568,Naples,Morris,Standard
75569,Nash,Bowie,Standard
75570,Boston,Bowie,Standard
75571,Omaha,Morris,Standard
75572,City,Cass,Standard
75573,Redwater,Bowie,Box
75574,Simms,Bowie,Standard
75599,Texarkana,Bowie,Unique
75601,Longview,Gregg,Standard
75602,Longview,Gregg,Standard
75603,Longview,Gregg,Standard
75604,Longview,Gregg,Standard
75605,Longview,Gregg,Standard
75606,Longview,Gregg,Box
75607,Longview,Gregg,Box
75608,Longview,Gregg,Box
75615,Longview,Gregg,Box
75630,Avinger,Cass,Standard
75631,Beckville,Panola,Standard
75633,Carthage,Panola,Standard
75636,Cason,Morris,Box
75637,Clayton,Panola,Box
75638,Daingerfield,Morris,Standard
75639,Berry,Panola,Standard
75640,Diana,Upshur,Standard
75641,Easton,Gregg,Box
75642,Fields,Harrison,Box
75643,Gary,Panola,Standard
75644,Gilmer,Upshur,Standard
75645,Gilmer,Upshur,Standard
75647,Gladewater,Gregg,Standard
75650,Hallsville,Harrison,Standard
75651,Harleton,Harrison,Standard
75652,Henderson,Rusk,Standard
75653,Henderson,Rusk,Box
75654,Henderson,Rusk,Standard
75656,Springs,Cass,Standard
75657,Jefferson,Marion,Standard
75658,Joinerville,Rusk,Box
75659,Jonesville,Harrison,Box
75660,Judson,Gregg,Box
75661,Karnack,Harrison,Standard
75662,Kilgore,Gregg,Standard
75663,Kilgore,Gregg,Box
75666,Hill,Rusk,Box
75667,Laneville,Rusk,Standard
75668,Star,Morris,Standard
75669,Branch,Panola,Standard
75670,Marshall,Harrison,Standard
75671,Marshall,Harrison,Box
75672,Marshall,Harrison,Standard
75680,Minden,Rusk,Box
75681,Enterprise,Rusk,Standard
75682,London,Rusk,Box
75683,City,Upshur,Standard
75684,Overton,Rusk,Standard
75685,Panola,Panola,Box
75686,Pittsburg,Camp,Standard
75687,Price,Rusk,Box
75688,Scottsville,Harrison,Box
75689,City,Rusk,Box
75691,Tatum,Rusk,Standard
75692,Waskom,Harrison,Standard
75693,Oak,Gregg,Standard
75694,Woodlawn,Harrison,Box
75701,Tyler,Smith,Standard
75702,Tyler,Smith,Standard
75703,Tyler,Smith,Standard
75704,Tyler,Smith,Standard
75705,Tyler,Smith,Standard
75706,Tyler,Smith,Standard
75707,Tyler,Smith,Standard
75708,Tyler,Smith,Standard
75709,Tyler,Smith,Standard
75710,Tyler,Smith,Box
75711,Tyler,Smith,Box
75712,Tyler,Smith,Box
75713,Tyler,Smith,Box
75750,Arp,Smith,Standard
75751,Athens,Henderson,Standard
75752,Athens,Henderson,Standard
75754,Wheeler,Zandt,Standard
75755,Sandy,Upshur,Standard
75756,Brownsboro,Henderson,Standard
75757,Bullard,Smith,Standard
75758,Chandler,Henderson,Standard
75759,Cuney,Cherokee,Box
75760,Cushing,Nacogdoches,Standard
75762,Flint,Smith,Standard
75763,Frankston,Anderson,Standard
75764,Gallatin,Cherokee,Box
75765,Hawkins,Wood,Standard
75766,Jacksonville,Cherokee,Standard
75770,Larue,Henderson,Standard
75771,Lindale,Smith,Standard
75772,Maydelle,Cherokee,Box
75773,Mineola,Wood,Standard
75778,Murchison,Henderson,Standard
75779,Neches,Anderson,Box
75780,Summerfield,Cherokee,Box
75782,Poynor,Henderson,Box
75783,Quitman,Wood,Standard
75784,Reklaw,Cherokee,Standard
75785,Rusk,Cherokee,Standard
75788,Sacul,Nacogdoches,Box
75789,Troup,Smith,Standard
75790,Van,Zandt,Standard
75791,Whitehouse,Smith,Standard
75792,Winona,Smith,Standard
75797,Sandy,Upshur,Unique
75798,Tyler,Smith,Unique
75799,Tyler,Smith,Unique
75801,Palestine,Anderson,Standard
75802,Palestine,Anderson,Box
75803,Palestine,Anderson,Standard
75831,Buffalo,Leon,Standard
75832,Cayuga,Anderson,Box
75833,Centerville,Leon,Standard
75834,Centralia,Trinity,Standard
75835,Crockett,Houston,Standard
75838,Donie,Freestone,Standard
75839,Elkhart,Anderson,Standard
75840,Fairfield,Freestone,Standard
75844,Grapeland,Houston,Standard
75845,Groveton,Trinity,Standard
75846,Jewett,Leon,Standard
75847,Kennard,Houston,Standard
75848,Kirvin,Freestone,Box
75849,Latexo,Houston,Box
75850,Leona,Leon,Standard
75851,Lovelady,Houston,Standard
75852,Midway,Madison,Standard
75853,Montalba,Anderson,Standard
75855,Oakwood,Leon,Standard
75856,Pennington,Trinity,Standard
75858,Ratcliff,Houston,Box
75859,Streetman,Freestone,Standard
75860,Teague,Freestone,Standard
75861,Colony,Anderson,Standard
75862,Trinity,Trinity,Standard
75865,Woodlake,Trinity,Box
75880,Colony,Anderson,Unique
75882,Palestine,Anderson,Unique
75884,Colony,Anderson,Unique
75886,Colony,Anderson,Unique
75901,Lufkin,Angelina,Standard
75902,Lufkin,Angelina,Box
75903,Lufkin,Angelina,Box
75904,Lufkin,Angelina,Standard
75915,Lufkin,Angelina,Box
75925,Alto,Cherokee,Standard
75926,Springs,Trinity,Standard
75928,Wier,Newton,Standard
75929,Broaddus,Augustine,Standard
75930,Bronson,Sabine,Standard
75931,Brookeland,Jasper,Standard
75932,Burkeville,Newton,Standard
75933,Call,Newton,Standard
75934,Camden,Polk,Box
75935,Center,Shelby,Standard
75936,Chester,Tyler,Standard
75937,Chireno,Nacogdoches,Standard
75938,Colmesneil,Tyler,Standard
75939,Corrigan,Polk,Standard
75941,Diboll,Angelina,Standard
75942,Doucette,Tyler,Box
75943,Douglass,Nacogdoches,Standard
75944,Etoile,Nacogdoches,Standard
75946,Garrison,Nacogdoches,Standard
75948,Hemphill,Sabine,Standard
75949,Huntington,Angelina,Standard
75951,Jasper,Jasper,Standard
75954,Joaquin,Shelby,Standard
75956,Kirbyville,Jasper,Standard
75958,Martinsville,Nacogdoches,Box
75959,Milam,Sabine,Standard
75960,Moscow,Polk,Standard
75961,Nacogdoches,Nacogdoches,Standard
75962,Nacogdoches,Nacogdoches,Unique
75963,Nacogdoches,Nacogdoches,Box
75964,Nacogdoches,Nacogdoches,Standard
75965,Nacogdoches,Nacogdoches,Standard
75966,Newton,Newton,Standard
75968,Pineland,Sabine,Standard
75969,Pollok,Angelina,Standard
75972,Augustine,Augustine,Standard
75973,Shelbyville,Shelby,Standard
75974,Tenaha,Shelby,Standard
75975,Timpson,Shelby,Standard
75976,Wells,Cherokee,Box
75977,Wiergate,Newton,Standard
75978,Woden,Nacogdoches,Box
75979,Woodville,Tyler,Standard
75980,Zavalla,Angelina,Standard
75990,Woodville,Tyler,Unique
76001,Arlington,Tarrant,Standard
76002,Arlington,Tarrant,Standard
76003,Arlington,Tarrant,Box
76004,Arlington,Tarrant,Box
76005,Arlington,Tarrant,Standard
76006,Arlington,Tarrant,Standard
76007,Arlington,Tarrant,Box
76008,Aledo,Parker,Standard
76009,Alvarado,Johnson,Standard
76010,Arlington,Tarrant,Standard
76011,Arlington,Tarrant,Standard
76012,Arlington,Tarrant,Standard
76013,Arlington,Tarrant,Standard
76014,Arlington,Tarrant,Standard
76015,Arlington,Tarrant,Standard
76016,Arlington,Tarrant,Standard
76017,Arlington,Tarrant,Standard
76018,Arlington,Tarrant,Standard
76019,Arlington,Tarrant,Unique
76020,Azle,Tarrant,Standard
76021,Bedford,Tarrant,Standard
76022,Bedford,Tarrant,Standard
76023,Boyd,Wise,Standard
76028,Burleson,Johnson,Standard
76031,Cleburne,Johnson,Standard
76033,Cleburne,Johnson,Standard
76034,Colleyville,Tarrant,Standard
76035,Cresson,Hood,Standard
76036,Crowley,Tarrant,Standard
76039,Euless,Tarrant,Standard
76040,Euless,Tarrant,Standard
76041,Forreston,Ellis,Standard
76043,Rose,Somervell,Standard
76044,Godley,Johnson,Standard
76048,Granbury,Hood,Standard
76049,Granbury,Hood,Standard
76050,Grandview,Johnson,Standard
76051,Grapevine,Tarrant,Standard
76052,Haslet,Tarrant,Standard
76053,Hurst,Tarrant,Standard
76054,Hurst,Tarrant,Standard
76055,Itasca,Hill,Standard
76058,Joshua,Johnson,Standard
76059,Keene,Johnson,Standard
76060,Kennedale,Tarrant,Standard
76061,Lillian,Johnson,Box
76063,Mansfield,Tarrant,Standard
76064,Maypearl,Ellis,Standard
76065,Midlothian,Ellis,Standard
76066,Millsap,Parker,Standard
76067,Wells,Pinto,Standard
76068,Wells,Pinto,Box
76070,Nemo,Somervell,Standard
76071,Newark,Wise,Standard
76073,Paradise,Wise,Standard
76077,Rainbow,Somervell,Standard
76078,Rhome,Wise,Standard
76082,Springtown,Parker,Standard
76084,Venus,Johnson,Standard
76085,Weatherford,Parker,Standard
76086,Weatherford,Parker,Standard
76087,Weatherford,Parker,Standard
76088,Weatherford,Parker,Standard
76092,Southlake,Tarrant,Standard
76093,Vista,Johnson,Standard
76094,Arlington,Tarrant,Box
76095,Bedford,Tarrant,Box
76096,Arlington,Tarrant,Box
76097,Burleson,Johnson,Box
76098,Azle,Parker,Box
76099,Grapevine,Tarrant,Box
76101,Worth,Tarrant,Box
76102,Worth,Tarrant,Standard
76103,Worth,Tarrant,Standard
76104,Worth,Tarrant,Standard
76105,Worth,Tarrant,Standard
76106,Worth,Tarrant,Standard
76107,Worth,Tarrant,Standard
76108,Worth,Tarrant,Standard
76109,Worth,Tarrant,Standard
76110,Worth,Tarrant,Standard
76111,Worth,Tarrant,Standard
76112,Worth,Tarrant,Standard
76113,Worth,Tarrant,Box
76114,Worth,Tarrant,Standard
76115,Worth,Tarrant,Standard
76116,Worth,Tarrant,Standard
76117,City,Tarrant,Standard
76118,Worth,Tarrant,Standard
76119,Worth,Tarrant,Standard
76120,Worth,Tarrant,Standard
76121,Worth,Tarrant,Box
76122,Worth,Tarrant,Unique
76123,Worth,Tarrant,Standard
76124,Worth,Tarrant,Box
76126,Worth,Tarrant,Standard
76127,JRB,Tarrant,Standard
76129,Worth,Tarrant,Unique
76130,Worth,Tarrant,Unique
76131,Worth,Tarrant,Standard
76132,Worth,Tarrant,Standard
76133,Worth,Tarrant,Standard
76134,Worth,Tarrant,Standard
76135,Worth,Tarrant,Standard
76136,Worth,Tarrant,Box
76137,Worth,Tarrant,Standard
76140,Worth,Tarrant,Standard
76147,Worth,Tarrant,Box
76148,Worth,Tarrant,Standard
76150,Worth,Tarrant,Unique
76155,Worth,Tarrant,Standard
76161,Worth,Tarrant,Box
76162,Worth,Tarrant,Box
76163,Worth,Tarrant,Box
76164,Worth,Tarrant,Standard
76166,Worth,Tarrant,Unique
76177,Worth,Tarrant,Standard
76179,Worth,Tarrant,Standard
76180,Hills,Tarrant,Standard
76181,Worth,Tarrant,Box
76182,Hills,Tarrant,Standard
76185,Worth,Tarrant,Box
76190,Worth,Tarrant,Unique
76191,Worth,Tarrant,Unique
76192,Worth,Tarrant,Unique
76193,Worth,Tarrant,Unique
76195,Worth,Tarrant,Unique
76196,Worth,Tarrant,Unique
76197,Worth,Tarrant,Unique
76198,Worth,Tarrant,Unique
76199,Worth,Tarrant,Unique
76201,Denton,Denton,Standard
76202,Denton,Denton,Box
76203,Denton,Denton,Box
76204,Denton,Denton,Box
76205,Denton,Denton,Standard
76206,Denton,Denton,Box
76207,Denton,Denton,Standard
76208,Denton,Denton,Standard
76209,Denton,Denton,Standard
76210,Denton,Denton,Standard
76225,Alvord,Wise,Standard
76226,Argyle,Denton,Standard
76227,Aubrey,Denton,Standard
76228,Bellevue,Clay,Standard
76230,Bowie,Montague,Standard
76233,Collinsville,Grayson,Standard
76234,Decatur,Wise,Standard
76238,Era,Cooke,Standard
76239,Forestburg,Montague,Standard
76240,Gainesville,Cooke,Standard
76241,Gainesville,Cooke,Box
76244,Keller,Tarrant,Standard
76245,Gordonville,Grayson,Standard
76246,Greenwood,Wise,Box
76247,Justin,Denton,Standard
76248,Keller,Tarrant,Standard
76249,Krum,Denton,Standard
76250,Lindsay,Cooke,Standard
76251,Montague,Montague,Standard
76252,Muenster,Cooke,Standard
76253,Myra,Cooke,Box
76255,Nocona,Montague,Standard
76258,Point,Denton,Standard
76259,Ponder,Denton,Standard
76261,Ringgold,Montague,Standard
76262,Roanoke,Denton,Standard
76263,Rosston,Cooke,Standard
76264,Sadler,Grayson,Standard
76265,Jo,Montague,Standard
76266,Sanger,Denton,Standard
76267,Slidell,Wise,Box
76268,Southmayd,Grayson,Box
76270,Sunset,Montague,Standard
76271,Tioga,Grayson,Standard
76272,View,Cooke,Standard
76273,Whitesboro,Grayson,Standard
76301,Falls,Wichita,Standard
76302,Falls,Wichita,Standard
76305,Falls,Wichita,Standard
76306,Falls,Wichita,Standard
76307,Falls,Wichita,Box
76308,Falls,Wichita,Standard
76309,Falls,Wichita,Standard
76310,Falls,Wichita,Standard
76311,AFB,Wichita,Standard
76351,City,Archer,Box
76352,Bluegrove,Clay,Box
76354,Burkburnett,Wichita,Standard
76357,Byers,Clay,Standard
76360,Electra,Wichita,Standard
76363,Goree,Knox,Standard
76364,Harrold,Wilbarger,Standard
76365,Henrietta,Clay,Standard
76366,Holliday,Archer,Standard
76367,Park,Wichita,Standard
76369,Kamay,Wichita,Box
76370,Megargel,Archer,Box
76371,Munday,Knox,Standard
76372,Newcastle,Young,Standard
76373,Oklaunion,Wilbarger,Standard
76374,Olney,Young,Standard
76377,Petrolia,Clay,Standard
76379,Scotland,Archer,Standard
76380,Seymour,Baylor,Standard
76384,Vernon,Wilbarger,Standard
76385,Vernon,Wilbarger,Box
76388,Weinert,Haskell,Standard
76389,Windthorst,Archer,Standard
76401,Stephenville,Erath,Standard
76402,Stephenville,Erath,Unique
76424,Breckenridge,Stephens,Standard
76426,Bridgeport,Wise,Standard
76427,Bryson,Jack,Standard
76429,Caddo,Stephens,Standard
76430,Albany,Shackelford,Standard
76431,Chico,Wise,Standard
76432,Blanket,Brown,Standard
76433,Dale,Erath,Standard
76435,Carbon,Eastland,Standard
76436,Carlton,Hamilton,Standard
76437,Cisco,Eastland,Standard
76439,Dennis,Parker,Box
76442,Comanche,Comanche,Standard
76443,Plains,Callahan,Standard
76444,Leon,Comanche,Standard
76445,Desdemona,Eastland,Standard
76446,Dublin,Erath,Standard
76448,Eastland,Eastland,Standard
76449,Graford,Pinto,Standard
76450,Graham,Young,Standard
76452,Energy,Comanche,Box
76453,Gordon,Pinto,Standard
76454,Gorman,Eastland,Standard
76455,Gustine,Comanche,Standard
76457,Hico,Hamilton,Standard
76458,Jacksboro,Jack,Standard
76459,Jermyn,Jack,Standard
76460,Loving,Young,Standard
76461,Lingleville,Erath,Box
76462,Lipan,Hood,Standard
76463,Mingus,Pinto,Standard
76464,Moran,Shackelford,Standard
76465,Mill,Erath,Box
76466,Olden,Eastland,Box
76467,Paluxy,Hood,Box
76468,Proctor,Comanche,Box
76469,Putnam,Callahan,Box
76470,Ranger,Eastland,Standard
76471,Star,Eastland,Standard
76472,Santo,Pinto,Standard
76474,Sidney,Comanche,Standard
76475,Strawn,Pinto,Standard
76476,Tolar,Hood,Standard
76481,Bend,Young,Standard
76483,Throckmorton,Throckmorton,Standard
76484,Pinto,Pinto,Standard
76485,Peaster,Parker,Box
76486,Perrin,Jack,Standard
76487,Poolville,Parker,Standard
76490,Whitt,Parker,Standard
76491,Woodson,Throckmorton,Standard
76501,Temple,Bell,Standard
76502,Temple,Bell,Standard
76503,Temple,Bell,Box
76504,Temple,Bell,Standard
76508,Temple,Bell,Unique
76511,Bartlett,Bell,Standard
76513,Belton,Bell,Standard
76518,Buckholts,Milam,Standard
76519,Burlington,Milam,Standard
76520,Cameron,Milam,Standard
76522,Cove,Coryell,Standard
76523,Davilla,Milam,Box
76524,Eddy,Mclennan,Standard
76525,Evant,Coryell,Standard
76526,Flat,Coryell,Box
76527,Florence,Williamson,Standard
76528,Gatesville,Coryell,Standard
76530,Granger,Williamson,Standard
76531,Hamilton,Hamilton,Standard
76533,Heidenheimer,Bell,Box
76534,Holland,Bell,Standard
76537,Jarrell,Williamson,Standard
76538,Jonesboro,Coryell,Standard
76539,Kempner,Lampasas,Standard
76540,Killeen,Bell,Box
76541,Killeen,Bell,Standard
76542,Killeen,Bell,Standard
76543,Killeen,Bell,Standard
76544,Hood,Bell,Standard
76547,Killeen,Bell,Box
76548,Heights,Bell,Standard
76549,Killeen,Bell,Standard
76550,Lampasas,Lampasas,Standard
76554,Academy,Bell,Standard
76556,Milano,Milam,Standard
76557,Moody,Mclennan,Standard
76558,Mound,Coryell,Box
76559,Nolanville,Bell,Standard
76561,Oglesby,Coryell,Standard
76564,Pendleton,Bell,Box
76565,Pottsville,Hamilton,Standard
76566,Purmela,Coryell,Standard
76567,Rockdale,Milam,Standard
76569,Rogers,Bell,Standard
76570,Rosebud,Falls,Standard
76571,Salado,Bell,Standard
76573,Schwertner,Williamson,Box
76574,Taylor,Williamson,Standard
76577,Thorndale,Milam,Standard
76578,Thrall,Williamson,Standard
76579,Troy,Bell,Standard
76596,Gatesville,Coryell,Unique
76597,Gatesville,Coryell,Unique
76598,Gatesville,Coryell,Unique
76599,Gatesville,Coryell,Unique
76621,Abbott,Hill,Standard
76622,Aquilla,Hill,Standard
76623,Avalon,Ellis,Box
76624,Axtell,Mclennan,Standard
76626,Grove,Navarro,Standard
76627,Blum,Hill,Standard
76628,Brandon,Hill,Box
76629,Bremond,Robertson,Standard
76630,Bruceville,Mclennan,Standard
76631,Bynum,Hill,Standard
76632,Chilton,Falls,Standard
76633,Spring,Mclennan,Standard
76634,Clifton,Bosque,Standard
76635,Coolidge,Limestone,Standard
76636,Covington,Hill,Standard
76637,Gap,Bosque,Standard
76638,Crawford,Mclennan,Standard
76639,Dawson,Navarro,Standard
76640,Mott,Mclennan,Standard
76641,Frost,Navarro,Standard
76642,Groesbeck,Limestone,Standard
76643,Hewitt,Mclennan,Standard
76644,Park,Bosque,Box
76645,Hillsboro,Hill,Standard
76648,Hubbard,Hill,Standard
76649,Iredell,Bosque,Standard
76650,Irene,Hill,Box
76651,Italy,Ellis,Standard
76652,Kopperl,Bosque,Standard
76653,Kosse,Limestone,Standard
76654,Leroy,Mclennan,Box
76655,Lorena,Mclennan,Standard
76656,Lott,Falls,Standard
76657,Gregor,Mclennan,Standard
76660,Malone,Hill,Standard
76661,Marlin,Falls,Standard
76664,Mart,Mclennan,Standard
76665,Meridian,Bosque,Standard
76666,Mertens,Hill,Standard
76667,Mexia,Limestone,Standard
76670,Milford,Ellis,Standard
76671,Morgan,Bosque,Standard
76673,Calm,Hill,Standard
76676,Penelope,Hill,Standard
76678,Hill,Limestone,Standard
76679,Purdon,Navarro,Standard
76680,Reagan,Falls,Standard
76681,Richland,Navarro,Standard
76682,Riesel,Mclennan,Standard
76684,Ross,Mclennan,Box
76685,Satin,Falls,Standard
76686,Tehuacana,Limestone,Box
76687,Thornton,Limestone,Standard
76689,Mills,Bosque,Standard
76690,Springs,Bosque,Standard
76691,West,Mclennan,Standard
76692,Whitney,Hill,Standard
76693,Wortham,Freestone,Standard
76701,Waco,Mclennan,Standard
76702,Waco,Mclennan,Box
76703,Waco,Mclennan,Box
76704,Waco,Mclennan,Standard
76705,Waco,Mclennan,Standard
76706,Waco,Mclennan,Standard
76707,Waco,Mclennan,Standard
76708,Waco,Mclennan,Standard
76710,Waco,Mclennan,Standard
76711,Waco,Mclennan,Standard
76712,Woodway,Mclennan,Standard
76714,Waco,Mclennan,Box
76715,Waco,Mclennan,Box
76716,Waco,Mclennan,Box
76797,Waco,Mclennan,Unique
76798,Waco,Mclennan,Standard
76799,Waco,Mclennan,Unique
76801,Brownwood,Brown,Standard
76802,Early,Brown,Standard
76803,Early,Brown,Box
76804,Brownwood,Brown,Box
76820,Art,Mason,Standard
76821,Ballinger,Runnels,Standard
76823,Bangs,Brown,Standard
76824,Bend,Saba,Box
76825,Brady,Mcculloch,Standard
76827,Brookesmith,Brown,Standard
76828,Burkett,Coleman,Standard
76831,Castell,Llano,Standard
76832,Cherokee,Saba,Standard
76834,Coleman,Coleman,Standard
76836,Doole,Mcculloch,Standard
76837,Eden,Concho,Standard
76841,Kavett,Menard,Standard
76842,Fredonia,Mason,Standard
76844,Goldthwaite,Mills,Standard
76845,Gouldbusk,Coleman,Standard
76848,Hext,Menard,Standard
76849,Junction,Kimble,Standard
76852,Lohn,Mcculloch,Standard
76853,Lometa,Lampasas,Standard
76854,London,Kimble,Standard
76855,Lowake,Concho,Box
76856,Mason,Mason,Standard
76857,May,Brown,Standard
76858,Melvin,Mcculloch,Standard
76859,Menard,Menard,Standard
76861,Miles,Runnels,Standard
76862,Millersview,Concho,Standard
76864,Mullin,Mills,Standard
76865,Norton,Runnels,Standard
76866,Rock,Concho,Standard
76869,Pontotoc,Mason,Standard
76870,Priddy,Mills,Standard
76871,Springs,Saba,Standard
76872,Rochelle,Mcculloch,Standard
76873,Rockwood,Coleman,Standard
76874,Roosevelt,Kimble,Standard
76875,Rowena,Runnels,Standard
76877,Saba,Saba,Standard
76878,Anna,Coleman,Standard
76880,Star,Mills,Box
76882,Talpa,Coleman,Standard
76883,Telegraph,Edwards,Standard
76884,Valera,Coleman,Standard
76885,Spring,Llano,Standard
76886,Veribest,Green,Box
76887,Voca,Mcculloch,Standard
76888,Voss,Coleman,Standard
76890,Zephyr,Brown,Standard
76901,Angelo,Green,Standard
76902,Angelo,Green,Box
76903,Angelo,Green,Standard
76904,Angelo,Green,Standard
76905,Angelo,Green,Standard
76906,Angelo,Green,Box
76908,AFB,Green,Standard
76909,Angelo,Green,Unique
76930,Barnhart,Irion,Box
76932,Lake,Reagan,Standard
76933,Bronte,Coke,Standard
76934,Carlsbad,Green,Standard
76935,Christoval,Green,Standard
76936,Eldorado,Schleicher,Standard
76937,Eola,Concho,Standard
76939,Knickerbocker,Green,Box
76940,Mereta,Green,Standard
76941,Mertzon,Irion,Standard
76943,Ozona,Crockett,Standard
76945,Lee,Coke,Standard
76949,Silver,Coke,Standard
76950,Sonora,Sutton,Standard
76951,City,Sterling,Standard
76953,Tennyson,Coke,Box
76955,Vancourt,Green,Standard
76957,Wall,Green,Standard
76958,Valley,Green,Box
77001,Houston,Harris,Box
77002,Houston,Harris,Standard
77003,Houston,Harris,Standard
77004,Houston,Harris,Standard
77005,Houston,Harris,Standard
77006,Houston,Harris,Standard
77007,Houston,Harris,Standard
77008,Houston,Harris,Standard
77009,Houston,Harris,Standard
77010,Houston,Harris,Standard
77011,Houston,Harris,Standard
77012,Houston,Harris,Standard
77013,Houston,Harris,Standard
77014,Houston,Harris,Standard
77015,Houston,Harris,Standard
77016,Houston,Harris,Standard
77017,Houston,Harris,Standard
77018,Houston,Harris,Standard
77019,Houston,Harris,Standard
77020,Houston,Harris,Standard
77021,Houston,Harris,Standard
77022,Houston,Harris,Standard
77023,Houston,Harris,Standard
77024,Houston,Harris,Standard
77025,Houston,Harris,Standard
77026,Houston,Harris,Standard
77027,Houston,Harris,Standard
77028,Houston,Harris,Standard
77029,Houston,Harris,Standard
77030,Houston,Harris,Standard
77031,Houston,Harris,Standard
77032,Houston,Harris,Standard
77033,Houston,Harris,Standard
77034,Houston,Harris,Standard
77035,Houston,Harris,Standard
77036,Houston,Harris,Standard
77037,Houston,Harris,Standard
77038,Houston,Harris,Standard
77039,Houston,Harris,Standard
77040,Houston,Harris,Standard
77041,Houston,Harris,Standard
77042,Houston,Harris,Standard
77043,Houston,Harris,Standard
77044,Houston,Harris,Standard
77045,Houston,Harris,Standard
77046,Houston,Harris,Standard
77047,Houston,Harris,Standard
77048,Houston,Harris,Standard
77049,Houston,Harris,Standard
77050,Houston,Harris,Standard
77051,Houston,Harris,Standard
77052,Houston,Harris,Box
77053,Houston,Bend,Standard
77054,Houston,Harris,Standard
77055,Houston,Harris,Standard
77056,Houston,Harris,Standard
77057,Houston,Harris,Standard
77058,Houston,Harris,Standard
77059,Houston,Harris,Standard
77060,Houston,Harris,Standard
77061,Houston,Harris,Standard
77062,Houston,Harris,Standard
77063,Houston,Harris,Standard
77064,Houston,Harris,Standard
77065,Houston,Harris,Standard
77066,Houston,Harris,Standard
77067,Houston,Harris,Standard
77068,Houston,Harris,Standard
77069,Houston,Harris,Standard
77070,Houston,Harris,Standard
77071,Houston,Harris,Standard
77072,Houston,Harris,Standard
77073,Houston,Harris,Standard
77074,Houston,Harris,Standard
77075,Houston,Harris,Standard
77076,Houston,Harris,Standard
77077,Houston,Harris,Standard
77078,Houston,Harris,Standard
77079,Houston,Harris,Standard
77080,Houston,Harris,Standard
77081,Houston,Harris,Standard
77082,Houston,Harris,Standard
77083,Houston,Harris,Standard
77084,Houston,Harris,Standard
77085,Houston,Harris,Standard
77086,Houston,Harris,Standard
77087,Houston,Harris,Standard
77088,Houston,Harris,Standard
77089,Houston,Harris,Standard
77090,Houston,Harris,Standard
77091,Houston,Harris,Standard
77092,Houston,Harris,Standard
77093,Houston,Harris,Standard
77094,Houston,Harris,Standard
77095,Houston,Harris,Standard
77096,Houston,Harris,Standard
77098,Houston,Harris,Standard
77099,Houston,Harris,Standard
77201,Houston,Harris,Standard
77202,Houston,Harris,Box
77203,Houston,Harris,Box
77204,Houston,Harris,Unique
77205,Houston,Harris,Box
77206,Houston,Harris,Box
77207,Houston,Harris,Box
77208,Houston,Harris,Box
77209,Houston,Harris,Unique
77210,Houston,Harris,Box
77212,Houston,Harris,Unique
77213,Houston,Harris,Box
77215,Houston,Harris,Box
77216,Houston,Harris,Unique
77217,Houston,Harris,Box
77218,Houston,Harris,Box
77219,Houston,Harris,Box
77220,Houston,Harris,Box
77221,Houston,Harris,Box
77222,Houston,Harris,Box
77223,Houston,Harris,Box
77224,Houston,Harris,Box
77225,Houston,Harris,Box
77226,Houston,Harris,Box
77227,Houston,Harris,Box
77228,Houston,Harris,Box
77229,Houston,Harris,Box
77230,Houston,Harris,Box
77231,Houston,Harris,Box
77233,Houston,Harris,Box
77234,Houston,Harris,Box
77235,Houston,Harris,Box
77236,Houston,Harris,Box
77237,Houston,Harris,Box
77238,Houston,Harris,Box
77240,Houston,Harris,Box
77241,Houston,Harris,Box
77242,Houston,Harris,Box
77243,Houston,Harris,Box
77244,Houston,Harris,Box
77245,Houston,Harris,Box
77248,Houston,Harris,Box
77249,Houston,Harris,Box
77251,Houston,Harris,Box
77252,Houston,Harris,Box
77253,Houston,Harris,Box
77254,Houston,Harris,Box
77255,Houston,Harris,Box
77256,Houston,Harris,Box
77257,Houston,Harris,Box
77258,Houston,Harris,Box
77259,Houston,Harris,Box
77261,Houston,Harris,Box
77262,Houston,Harris,Box
77263,Houston,Harris,Box
77265,Houston,Harris,Box
77266,Houston,Harris,Box
77267,Houston,Harris,Box
77268,Houston,Harris,Box
77269,Houston,Harris,Box
77270,Houston,Harris,Box
77271,Houston,Harris,Box
77272,Houston,Harris,Box
77273,Houston,Harris,Box
77274,Houston,Harris,Box
77275,Houston,Harris,Box
77277,Houston,Harris,Box
77279,Houston,Harris,Box
77280,Houston,Harris,Box
77282,Houston,Harris,Box
77284,Houston,Harris,Box
77287,Houston,Harris,Box
77288,Houston,Harris,Box
77289,Houston,Harris,Box
77290,Houston,Harris,Box
77291,Houston,Harris,Box
77292,Houston,Harris,Box
77293,Houston,Harris,Box
77297,Houston,Harris,Unique
77299,Houston,Harris,Unique
77301,Conroe,Montgomery,Standard
77302,Conroe,Montgomery,Standard
77303,Conroe,Montgomery,Standard
77304,Conroe,Montgomery,Standard
77305,Conroe,Montgomery,Box
77306,Conroe,Montgomery,Standard
77315,Houston,Harris,Standard
77316,Montgomery,Montgomery,Standard
77318,Willis,Montgomery,Standard
77320,Huntsville,Walker,Standard
77325,Kingwood,Harris,Box
77326,Ace,Polk,Box
77327,Cleveland,Liberty,Standard
77328,Cleveland,Liberty,Standard
77331,Coldspring,Jacinto,Standard
77332,Dallardsville,Polk,Box
77333,Dobbin,Montgomery,Box
77334,Dodge,Walker,Box
77335,Goodrich,Polk,Standard
77336,Huffman,Harris,Standard
77337,Hufsmith,Harris,Box
77338,Humble,Harris,Standard
77339,Kingwood,Harris,Standard
77340,Huntsville,Walker,Standard
77341,Huntsville,Walker,Unique
77342,Huntsville,Walker,Box
77343,Huntsville,Walker,Unique
77344,Huntsville,Walker,Unique
77345,Kingwood,Harris,Standard
77346,Humble,Harris,Standard
77347,Humble,Harris,Box
77348,Huntsville,Walker,Unique
77349,Huntsville,Walker,Unique
77350,Leggett,Polk,Box
77351,Livingston,Polk,Standard
77353,Magnolia,Montgomery,Box
77354,Magnolia,Montgomery,Standard
77355,Magnolia,Montgomery,Standard
77356,Montgomery,Montgomery,Standard
77357,Caney,Montgomery,Standard
77358,Waverly,Walker,Standard
77359,Oakhurst,Jacinto,Standard
77360,Onalaska,Polk,Standard
77362,Pinehurst,Montgomery,Standard
77363,Plantersville,Grimes,Standard
77364,Pointblank,Jacinto,Standard
77365,Porter,Montgomery,Standard
77367,Riverside,Walker,Box
77368,Romayor,Liberty,Box
77369,Rye,Liberty,Box
77371,Shepherd,Jacinto,Standard
77372,Splendora,Montgomery,Standard
77373,Spring,Harris,Standard
77374,Thicket,Hardin,Box
77375,Tomball,Harris,Standard
77376,Votaw,Hardin,Box
77377,Tomball,Harris,Standard
77378,Willis,Montgomery,Standard
77379,Spring,Harris,Standard
77380,Spring,Montgomery,Standard
77381,Spring,Montgomery,Standard
77382,Spring,Montgomery,Standard
77383,Spring,Harris,Box
77384,Conroe,Montgomery,Standard
77385,Conroe,Montgomery,Standard
77386,Spring,Montgomery,Standard
77387,Spring,Montgomery,Box
77388,Spring,Harris,Standard
77389,Spring,Harris,Standard
77391,Spring,Harris,Box
77393,Spring,Montgomery,Box
77396,Humble,Harris,Standard
77399,Livingston,Polk,Unique
77401,Bellaire,Harris,Standard
77402,Bellaire,Harris,Box
77404,City,Matagorda,Box
77406,Richmond,Bend,Standard
77407,Richmond,Bend,Standard
77410,Cypress,Harris,Box
77411,Alief,Harris,Box
77412,Altair,Colorado,Box
77413,Barker,Harris,Box
77414,City,Matagorda,Standard
77415,Lane,Matagorda,Box
77417,Beasley,Bend,Standard
77418,Bellville,Austin,Standard
77419,Blessing,Matagorda,Box
77420,Boling,Wharton,Standard
77422,Brazoria,Brazoria,Standard
77423,Brookshire,Waller,Standard
77426,Hill,Washington,Standard
77428,Collegeport,Matagorda,Box
77429,Cypress,Harris,Standard
77430,Damon,Brazoria,Standard
77431,Danciger,Brazoria,Box
77432,Danevang,Wharton,Box
77433,Cypress,Harris,Standard
77434,Lake,Colorado,Standard
77435,Bernard,Wharton,Standard
77436,Egypt,Wharton,Box
77437,Campo,Wharton,Standard
77440,Elmaton,Matagorda,Box
77441,Fulshear,Bend,Standard
77442,Garwood,Colorado,Standard
77443,Flora,Wharton,Box
77444,Guy,Bend,Standard
77445,Hempstead,Waller,Standard
77446,View,Waller,Box
77447,Hockley,Harris,Standard
77448,Hungerford,Wharton,Box
77449,Katy,Harris,Standard
77450,Katy,Harris,Standard
77451,Kendleton,Bend,Box
77452,Kenney,Austin,Box
77453,City,Wharton,Box
77454,Lissie,Wharton,Box
77455,Louise,Wharton,Standard
77456,Markham,Matagorda,Box
77457,Matagorda,Matagorda,Box
77458,Midfield,Matagorda,Box
77459,City,Bend,Standard
77460,Nada,Colorado,Box
77461,Needville,Bend,Standard
77463,Ocean,Brazoria,Box
77464,Orchard,Bend,Box
77465,Palacios,Matagorda,Standard
77466,Pattison,Waller,Box
77467,Pierce,Wharton,Box
77468,Pledger,Matagorda,Standard
77469,Richmond,Bend,Standard
77470,Island,Colorado,Box
77471,Rosenberg,Bend,Standard
77473,Felipe,Austin,Box
77474,Sealy,Austin,Standard
77475,Sheridan,Colorado,Box
77476,Simonton,Bend,Box
77477,Stafford,Bend,Standard
77478,Land,Bend,Standard
77479,Land,Bend,Standard
77480,Sweeny,Brazoria,Standard
77481,Thompsons,Bend,Box
77482,Vleck,Matagorda,Standard
77483,Wadsworth,Matagorda,Box
77484,Waller,Harris,Standard
77485,Wallis,Austin,Standard
77486,Columbia,Brazoria,Standard
77487,Land,Bend,Box
77488,Wharton,Wharton,Standard
77489,City,Bend,Standard
77491,Katy,Harris,Box
77492,Katy,Harris,Box
77493,Katy,Harris,Standard
77494,Katy,Bend,Standard
77496,Land,Bend,Box
77497,Stafford,Bend,Box
77498,Land,Bend,Standard
77501,Pasadena,Harris,Box
77502,Pasadena,Harris,Standard
77503,Pasadena,Harris,Standard
77504,Pasadena,Harris,Standard
77505,Pasadena,Harris,Standard
77506,Pasadena,Harris,Standard
77507,Pasadena,Harris,Standard
77508,Pasadena,Harris,Box
77510,Fe,Galveston,Standard
77511,Alvin,Brazoria,Standard
77512,Alvin,Brazoria,Box
77514,Anahuac,Chambers,Standard
77515,Angleton,Brazoria,Standard
77516,Angleton,Brazoria,Box
77517,Fe,Galveston,Standard
77518,Bacliff,Galveston,Standard
77519,Batson,Hardin,Standard
77520,Baytown,Harris,Standard
77521,Baytown,Harris,Standard
77522,Baytown,Harris,Box
77523,Baytown,Chambers,Standard
77530,Channelview,Harris,Standard
77531,Clute,Brazoria,Standard
77532,Crosby,Harris,Standard
77533,Daisetta,Liberty,Box
77534,Danbury,Brazoria,Standard
77535,Dayton,Liberty,Standard
77536,Park,Harris,Standard
77538,Devers,Liberty,Standard
77539,Dickinson,Galveston,Standard
77541,Freeport,Brazoria,Standard
77542,Freeport,Brazoria,Box
77545,Fresno,Bend,Standard
77546,Friendswood,Galveston,Standard
77547,Park,Harris,Standard
77549,Friendswood,Galveston,Box
77550,Galveston,Galveston,Standard
77551,Galveston,Galveston,Standard
77552,Galveston,Galveston,Box
77553,Galveston,Galveston,Box
77554,Galveston,Galveston,Standard
77555,Galveston,Galveston,Unique
77560,Hankamer,Chambers,Standard
77561,Hardin,Liberty,Box
77562,Highlands,Harris,Standard
77563,Hitchcock,Galveston,Standard
77564,Hull,Liberty,Standard
77565,Kemah,Galveston,Standard
77566,Jackson,Brazoria,Standard
77568,Marque,Galveston,Standard
77571,Porte,Harris,Standard
77572,Porte,Harris,Box
77573,City,Galveston,Standard
77574,City,Galveston,Box
77575,Liberty,Liberty,Standard
77577,Liverpool,Brazoria,Standard
77578,Manvel,Brazoria,Standard
77580,Belvieu,Chambers,Box
77581,Pearland,Brazoria,Standard
77582,Raywood,Liberty,Box
77583,Rosharon,Brazoria,Standard
77584,Pearland,Brazoria,Standard
77585,Saratoga,Hardin,Standard
77586,Seabrook,Harris,Standard
77587,Houston,Harris,Standard
77588,Pearland,Brazoria,Box
77590,City,Galveston,Standard
77591,City,Galveston,Standard
77592,City,Galveston,Box
77597,Wallisville,Chambers,Standard
77598,Webster,Harris,Standard
77611,City,Orange,Standard
77612,Buna,Jasper,Standard
77613,China,Jefferson,Box
77614,Deweyville,Newton,Box
77615,Evadale,Jasper,Box
77616,Fred,Tyler,Standard
77617,Gilchrist,Galveston,Box
77619,Groves,Jefferson,Standard
77622,Hamshire,Jefferson,Standard
77623,Island,Galveston,Box
77624,Hillister,Tyler,Standard
77625,Kountze,Hardin,Standard
77626,Mauriceville,Orange,Box
77627,Nederland,Jefferson,Standard
77629,Nome,Jefferson,Box
77630,Orange,Orange,Standard
77631,Orange,Orange,Box
77632,Orange,Orange,Standard
77639,Orangefield,Orange,Box
77640,Arthur,Jefferson,Standard
77641,Arthur,Jefferson,Box
77642,Arthur,Jefferson,Standard
77643,Arthur,Jefferson,Box
77650,Bolivar,Galveston,Box
77651,Neches,Jefferson,Standard
77655,Pass,Jefferson,Standard
77656,Silsbee,Hardin,Standard
77657,Lumberton,Hardin,Standard
77659,Lake,Hardin,Standard
77660,Spurger,Tyler,Standard
77661,Stowell,Chambers,Box
77662,Vidor,Orange,Standard
77663,Mills,Hardin,Box
77664,Warren,Tyler,Standard
77665,Winnie,Chambers,Standard
77670,Vidor,Orange,Box
77701,Beaumont,Jefferson,Standard
77702,Beaumont,Jefferson,Standard
77703,Beaumont,Jefferson,Standard
77704,Beaumont,Jefferson,Box
77705,Beaumont,Jefferson,Standard
77706,Beaumont,Jefferson,Standard
77707,Beaumont,Jefferson,Standard
77708,Beaumont,Jefferson,Standard
77710,Beaumont,Jefferson,Box
77713,Beaumont,Jefferson,Standard
77720,Beaumont,Jefferson,Box
77725,Beaumont,Jefferson,Box
77726,Beaumont,Jefferson,Box
77801,Bryan,Brazos,Standard
77802,Bryan,Brazos,Standard
77803,Bryan,Brazos,Standard
77805,Bryan,Brazos,Box
77806,Bryan,Brazos,Box
77807,Bryan,Brazos,Standard
77808,Bryan,Brazos,Standard
77830,Anderson,Grimes,Standard
77831,Bedias,Grimes,Standard
77833,Brenham,Washington,Standard
77834,Brenham,Washington,Box
77835,Burton,Washington,Standard
77836,Caldwell,Burleson,Standard
77837,Calvert,Robertson,Standard
77838,Chriesman,Burleson,Box
77840,Station,Brazos,Standard
77841,Station,Brazos,Box
77842,Station,Brazos,Box
77843,Station,Brazos,Unique
77844,Station,Brazos,Box
77845,Station,Brazos,Standard
77850,Concord,Leon,Box
77852,Deanville,Burleson,Box
77853,Box,Lee,Standard
77855,Flynn,Leon,Box
77856,Franklin,Robertson,Standard
77857,Gause,Milam,Box
77859,Hearne,Robertson,Standard
77861,Iola,Grimes,Standard
77862,Kurten,Brazos,Box
77863,Lyons,Burleson,Box
77864,Madisonville,Madison,Standard
77865,Marquez,Leon,Standard
77866,Millican,Brazos,Box
77867,Mumford,Robertson,Box
77868,Navasota,Grimes,Standard
77870,Baden,Robertson,Box
77871,Normangee,Leon,Standard
77872,Zulch,Madison,Standard
77873,Richards,Grimes,Standard
77875,Prairie,Grimes,Box
77876,Shiro,Grimes,Box
77878,Snook,Burleson,Box
77879,Somerville,Burleson,Standard
77880,Washington,Washington,Standard
77881,Wellborn,Brazos,Box
77882,Wheelock,Robertson,Box
77901,Victoria,Victoria,Standard
77902,Victoria,Victoria,Box
77903,Victoria,Victoria,Box
77904,Victoria,Victoria,Standard
77905,Victoria,Victoria,Standard
77950,Austwell,Refugio,Box
77951,Bloomington,Victoria,Box
77954,Cuero,Witt,Standard
77957,Edna,Jackson,Standard
77960,Fannin,Goliad,Box
77961,Francitas,Jackson,Box
77962,Ganado,Jackson,Standard
77963,Goliad,Goliad,Standard
77964,Hallettsville,Lavaca,Standard
77967,Hochheim,Witt,Box
77968,Inez,Victoria,Standard
77969,Salle,Jackson,Box
77970,Ward,Jackson,Box
77971,Lolita,Jackson,Standard
77973,Mcfaddin,Victoria,Box
77974,Meyersville,Witt,Standard
77975,Moulton,Lavaca,Standard
77976,Nursery,Victoria,Box
77977,Placedo,Victoria,Box
77978,Comfort,Calhoun,Box
77979,Lavaca,Calhoun,Standard
77982,Connor,Calhoun,Box
77983,Seadrift,Calhoun,Standard
77984,Shiner,Lavaca,Standard
77986,Sublime,Lavaca,Standard
77987,Home,Lavaca,Box
77988,Telferner,Victoria,Box
77989,Thomaston,Witt,Box
77990,Tivoli,Refugio,Standard
77991,Vanderbilt,Jackson,Box
77993,Weesatche,Goliad,Box
77994,Westhoff,Witt,Standard
77995,Yoakum,Lavaca,Standard
78001,Wells,Salle,Box
78002,Atascosa,Bexar,Standard
78003,Bandera,Bandera,Standard
78004,Bergheim,Kendall,Standard
78005,Bigfoot,Frio,Standard
78006,Boerne,Kendall,Standard
78007,Calliham,Mcmullen,Standard
78008,Campbellton,Atascosa,Standard
78009,Castroville,Medina,Standard
78010,Point,Kerr,Standard
78011,Charlotte,Atascosa,Standard
78012,Christine,Atascosa,Standard
78013,Comfort,Kendall,Standard
78014,Cotulla,Salle,Standard
78015,Boerne,Kendall,Standard
78016,Devine,Medina,Standard
78017,Dilley,Frio,Standard
78019,Encinal,Salle,Box
78021,Fowlerton,Salle,Standard
78022,West,Oak,Standard
78023,Helotes,Bexar,Standard
78024,Hunt,Kerr,Standard
78025,Ingram,Kerr,Standard
78026,Jourdanton,Atascosa,Standard
78027,Kendalia,Kendall,Standard
78028,Kerrville,Kerr,Standard
78029,Kerrville,Kerr,Box
78039,Coste,Medina,Standard
78040,Laredo,Webb,Standard
78041,Laredo,Webb,Standard
78042,Laredo,Webb,Box
78043,Laredo,Webb,Standard
78044,Laredo,Webb,Box
78045,Laredo,Webb,Standard
78046,Laredo,Webb,Standard
78050,Leming,Atascosa,Box
78052,Lytle,Atascosa,Standard
78054,Macdona,Bexar,Box
78055,Medina,Bandera,Standard
78056,Mico,Medina,Standard
78057,Moore,Frio,Standard
78058,Home,Kerr,Standard
78059,Natalia,Medina,Standard
78060,Oakville,Oak,Standard
78061,Pearsall,Frio,Standard
78062,Peggy,Atascosa,Box
78063,Creek,Bandera,Standard
78064,Pleasanton,Atascosa,Standard
78065,Poteet,Atascosa,Standard
78066,Medina,Medina,Standard
78067,Ygnacio,Zapata,Standard
78069,Somerset,Bexar,Standard
78070,Branch,Comal,Standard
78071,Rivers,Oak,Standard
78072,Tilden,Mcmullen,Standard
78073,Ormy,Bexar,Standard
78074,Waring,Kendall,Box
78075,Whitsett,Oak,Standard
78076,Zapata,Zapata,Standard
78101,Adkins,Bexar,Standard
78102,Beeville,Bee,Standard
78104,Beeville,Bee,Box
78107,Berclair,Goliad,Box
78108,Cibolo,Guadalupe,Standard
78109,Converse,Bexar,Standard
78111,Ecleto,Karnes,Standard
78112,Elmendorf,Bexar,Standard
78113,City,Karnes,Standard
78114,Floresville,Wilson,Standard
78115,Geronimo,Guadalupe,Box
78116,Gillett,Karnes,Standard
78117,Hobson,Karnes,Standard
78118,City,Karnes,Standard
78119,Kenedy,Karnes,Standard
78121,Vernia,Wilson,Standard
78122,Leesville,Gonzales,Standard
78123,Queeney,Guadalupe,Standard
78124,Marion,Guadalupe,Standard
78125,Mineral,Bee,Box
78130,Braunfels,Comal,Standard
78131,Braunfels,Comal,Box
78132,Braunfels,Comal,Standard
78133,Lake,Comal,Standard
78135,Braunfels,Comal,Standard
78140,Nixon,Gonzales,Standard
78141,Nordheim,Witt,Standard
78142,Normanna,Bee,Box
78143,Pandora,Wilson,Box
78144,Maria,Karnes,Box
78145,Pawnee,Bee,Box
78146,Pettus,Bee,Box
78147,Poth,Wilson,Box
78148,City,Bexar,Standard
78150,Randolph,Bexar,Standard
78151,Runge,Karnes,Standard
78152,Hedwig,Bexar,Standard
78154,Schertz,Guadalupe,Standard
78155,Seguin,Guadalupe,Standard
78156,Seguin,Guadalupe,Box
78159,Smiley,Gonzales,Standard
78160,Stockdale,Wilson,Standard
78161,Springs,Wilson,Standard
78162,Tuleta,Bee,Box
78163,Bulverde,Comal,Standard
78164,Yorktown,Witt,Standard
78201,Antonio,Bexar,Standard
78202,Antonio,Bexar,Standard
78203,Antonio,Bexar,Standard
78204,Antonio,Bexar,Standard
78205,Antonio,Bexar,Standard
78206,Antonio,Bexar,Standard
78207,Antonio,Bexar,Standard
78208,Antonio,Bexar,Standard
78209,Antonio,Bexar,Standard
78210,Antonio,Bexar,Standard
78211,Antonio,Bexar,Standard
78212,Antonio,Bexar,Standard
78213,Antonio,Bexar,Standard
78214,Antonio,Bexar,Standard
78215,Antonio,Bexar,Standard
78216,Antonio,Bexar,Standard
78217,Antonio,Bexar,Standard
78218,Antonio,Bexar,Standard
78219,Antonio,Bexar,Standard
78220,Antonio,Bexar,Standard
78221,Antonio,Bexar,Standard
78222,Antonio,Bexar,Standard
78223,Antonio,Bexar,Standard
78224,Antonio,Bexar,Standard
78225,Antonio,Bexar,Standard
78226,Antonio,Bexar,Standard
78227,Antonio,Bexar,Standard
78228,Antonio,Bexar,Standard
78229,Antonio,Bexar,Standard
78230,Antonio,Bexar,Standard
78231,Antonio,Bexar,Standard
78232,Antonio,Bexar,Standard
78233,Antonio,Bexar,Standard
78234,Houston,Bexar,Standard
78235,Antonio,Bexar,Standard
78236,Lackland,Bexar,Standard
78237,Antonio,Bexar,Standard
78238,Antonio,Bexar,Standard
78239,Antonio,Bexar,Standard
78240,Antonio,Bexar,Standard
78241,Antonio,Bexar,Standard
78242,Antonio,Bexar,Standard
78243,Antonio,Bexar,Standard
78244,Antonio,Bexar,Standard
78245,Antonio,Bexar,Standard
78246,Antonio,Bexar,Box
78247,Antonio,Bexar,Standard
78248,Antonio,Bexar,Standard
78249,Antonio,Bexar,Standard
78250,Antonio,Bexar,Standard
78251,Antonio,Bexar,Standard
78252,Antonio,Bexar,Standard
78253,Antonio,Bexar,Standard
78254,Antonio,Bexar,Standard
78255,Antonio,Bexar,Standard
78256,Antonio,Bexar,Standard
78257,Antonio,Bexar,Standard
78258,Antonio,Bexar,Standard
78259,Antonio,Bexar,Standard
78260,Antonio,Bexar,Standard
78261,Antonio,Bexar,Standard
78263,Antonio,Bexar,Standard
78264,Antonio,Bexar,Standard
78265,Antonio,Bexar,Box
78266,Antonio,Comal,Standard
78268,Antonio,Bexar,Box
78269,Antonio,Bexar,Box
78270,Antonio,Bexar,Box
78278,Antonio,Bexar,Box
78279,Antonio,Bexar,Box
78280,Antonio,Bexar,Box
78283,Antonio,Bexar,Box
78284,Antonio,Bexar,Standard
78285,Antonio,Bexar,Standard
78288,Antonio,Bexar,Unique
78289,Antonio,Bexar,Unique
78291,Antonio,Bexar,Box
78292,Antonio,Bexar,Box
78293,Antonio,Bexar,Box
78294,Antonio,Bexar,Box
78295,Antonio,Bexar,Box
78296,Antonio,Bexar,Box
78297,Antonio,Bexar,Box
78298,Antonio,Bexar,Box
78299,Antonio,Bexar,Box
78330,Dulce,Nueces,Standard
78332,Alice,Wells,Standard
78333,Alice,Wells,Box
78335,Pass,Patricio,Box
78336,Pass,Patricio,Standard
78338,Armstrong,Kenedy,Box
78339,Banquete,Nueces,Box
78340,Bayside,Refugio,Standard
78341,Benavides,Duval,Box
78342,Bolt,Wells,Box
78343,Bishop,Nueces,Standard
78344,Bruni,Webb,Standard
78347,Ranch,Nueces,Box
78349,Concepcion,Duval,Standard
78350,Dinero,Oak,Box
78351,Driscoll,Nueces,Box
78352,Edroy,Patricio,Box
78353,Encino,Brooks,Standard
78355,Falfurrias,Brooks,Standard
78357,Freer,Duval,Standard
78358,Fulton,Aransas,Box
78359,Gregory,Patricio,Box
78360,Guerra,Hogg,Standard
78361,Hebbronville,Hogg,Standard
78362,Ingleside,Patricio,Standard
78363,Kingsville,Kleberg,Standard
78364,Kingsville,Kleberg,Box
78368,Mathis,Patricio,Standard
78369,City,Webb,Standard
78370,Odem,Patricio,Standard
78371,Oilton,Webb,Box
78372,Grove,Wells,Standard
78373,Aransas,Nueces,Standard
78374,Portland,Patricio,Standard
78375,Premont,Wells,Standard
78376,Realitos,Duval,Standard
78377,Refugio,Refugio,Standard
78379,Riviera,Kleberg,Standard
78380,Robstown,Nueces,Standard
78381,Rockport,Aransas,Box
78382,Rockport,Aransas,Standard
78383,Sandia,Wells,Standard
78384,Diego,Duval,Standard
78385,Sarita,Kenedy,Box
78387,Sinton,Patricio,Standard
78389,Skidmore,Bee,Standard
78390,Taft,Patricio,Standard
78391,Tynan,Bee,Standard
78393,Woodsboro,Refugio,Standard
78401,Christi,Nueces,Standard
78402,Christi,Nueces,Standard
78403,Christi,Nueces,Box
78404,Christi,Nueces,Standard
78405,Christi,Nueces,Standard
78406,Christi,Nueces,Standard
78407,Christi,Nueces,Standard
78408,Christi,Nueces,Standard
78409,Christi,Nueces,Standard
78410,Christi,Nueces,Standard
78411,Christi,Nueces,Standard
78412,Christi,Nueces,Standard
78413,Christi,Nueces,Standard
78414,Christi,Nueces,Standard
78415,Christi,Nueces,Standard
78416,Christi,Nueces,Standard
78417,Christi,Nueces,Standard
78418,Christi,Nueces,Standard
78419,Christi,Nueces,Standard
78426,Christi,Nueces,Box
78427,Christi,Nueces,Box
78460,Christi,Nueces,Box
78463,Christi,Nueces,Box
78465,Christi,Nueces,Box
78466,Christi,Nueces,Box
78467,Christi,Nueces,Box
78468,Christi,Nueces,Box
78469,Christi,Nueces,Box
78472,Christi,Nueces,Box
78480,Christi,Nueces,Box
78501,Mcallen,Hidalgo,Standard
78502,Mcallen,Hidalgo,Box
78503,Mcallen,Hidalgo,Standard
78504,Mcallen,Hidalgo,Standard
78505,Mcallen,Hidalgo,Box
78516,Alamo,Hidalgo,Standard
78520,Brownsville,Cameron,Standard
78521,Brownsville,Cameron,Standard
78522,Brownsville,Cameron,Box
78523,Brownsville,Cameron,Box
78526,Brownsville,Cameron,Standard
78535,Combes,Cameron,Box
78536,Delmita,Starr,Standard
78537,Donna,Hidalgo,Standard
78538,Edcouch,Hidalgo,Standard
78539,Edinburg,Hidalgo,Standard
78540,Edinburg,Hidalgo,Box
78541,Edinburg,Hidalgo,Standard
78542,Edinburg,Hidalgo,Standard
78543,Elsa,Hidalgo,Box
78545,Heights,Starr,Box
78547,Garciasville,Starr,Box
78548,Grulla,Starr,Box
78549,Hargill,Hidalgo,Box
78550,Harlingen,Cameron,Standard
78551,Harlingen,Cameron,Box
78552,Harlingen,Cameron,Standard
78553,Harlingen,Cameron,Box
78557,Hidalgo,Hidalgo,Standard
78558,Blanca,Hidalgo,Box
78559,Feria,Cameron,Standard
78560,Joya,Hidalgo,Standard
78561,Lasara,Willacy,Box
78562,Villa,Hidalgo,Box
78563,Linn,Hidalgo,Standard
78564,Lopeno,Zapata,Standard
78565,Ebanos,Hidalgo,Box
78566,Fresnos,Cameron,Standard
78567,Indios,Cameron,Box
78568,Lozano,Cameron,Box
78569,Lyford,Willacy,Standard
78570,Mercedes,Hidalgo,Standard
78572,Mission,Hidalgo,Standard
78573,Mission,Hidalgo,Standard
78574,Mission,Hidalgo,Standard
78575,Olmito,Cameron,Standard
78576,Penitas,Hidalgo,Standard
78577,Pharr,Hidalgo,Standard
78578,Isabel,Cameron,Standard
78579,Progreso,Hidalgo,Box
78580,Raymondville,Willacy,Standard
78582,City,Starr,Standard
78583,Hondo,Cameron,Standard
78584,Roma,Starr,Standard
78585,Salineno,Starr,Box
78586,Benito,Cameron,Standard
78588,Isidro,Starr,Standard
78589,Juan,Hidalgo,Standard
78590,Perlita,Willacy,Box
78591,Elena,Starr,Standard
78592,Maria,Cameron,Box
78593,Rosa,Cameron,Standard
78594,Sebastian,Willacy,Box
78595,City,Hidalgo,Standard
78596,Weslaco,Hidalgo,Standard
78597,Island,Cameron,Standard
78598,Mansfield,Willacy,Box
78599,Weslaco,Hidalgo,Standard
78602,Bastrop,Bastrop,Standard
78604,Belmont,Gonzales,Box
78605,Bertram,Burnet,Standard
78606,Blanco,Blanco,Standard
78607,Bluffton,Llano,Standard
78608,Briggs,Burnet,Standard
78609,Dam,Llano,Standard
78610,Buda,Hays,Standard
78611,Burnet,Burnet,Standard
78612,Creek,Bastrop,Standard
78613,Park,Williamson,Standard
78614,Cost,Gonzales,Standard
78615,Coupland,Williamson,Standard
78616,Dale,Caldwell,Standard
78617,Valle,Travis,Standard
78618,Doss,Gillespie,Standard
78619,Driftwood,Hays,Standard
78620,Springs,Hays,Standard
78621,Elgin,Bastrop,Standard
78622,Fentress,Caldwell,Box
78623,Fischer,Comal,Standard
78624,Fredericksburg,Gillespie,Standard
78626,Georgetown,Williamson,Standard
78627,Georgetown,Williamson,Box
78628,Georgetown,Williamson,Standard
78629,Gonzales,Gonzales,Standard
78630,Park,Williamson,Box
78631,Harper,Gillespie,Standard
78632,Harwood,Gonzales,Standard
78633,Georgetown,Williamson,Standard
78634,Hutto,Williamson,Standard
78635,Hye,Blanco,Standard
78636,City,Blanco,Standard
78638,Kingsbury,Guadalupe,Standard
78639,Kingsland,Llano,Standard
78640,Kyle,Hays,Standard
78641,Leander,Williamson,Standard
78642,Hill,Williamson,Standard
78643,Llano,Llano,Standard
78644,Lockhart,Caldwell,Standard
78645,Leander,Travis,Standard
78646,Leander,Williamson,Box
78648,Luling,Caldwell,Standard
78650,Dade,Bastrop,Standard
78651,Neil,Travis,Box
78652,Manchaca,Travis,Standard
78653,Manor,Travis,Standard
78654,Falls,Burnet,Standard
78655,Martindale,Caldwell,Standard
78656,Maxwell,Caldwell,Standard
78657,Bay,Llano,Standard
78658,Ottine,Gonzales,Box
78659,Paige,Bastrop,Standard
78660,Pflugerville,Travis,Standard
78661,Lea,Caldwell,Box
78662,Rock,Bastrop,Standard
78663,Mountain,Blanco,Standard
78664,Rock,Williamson,Standard
78665,Rock,Williamson,Standard
78666,Marcos,Hays,Standard
78667,Marcos,Hays,Box
78669,Spicewood,Travis,Standard
78670,Staples,Guadalupe,Box
78671,Stonewall,Gillespie,Standard
78672,Tow,Llano,Standard
78673,Walburg,Williamson,Box
78674,Weir,Williamson,Box
78675,City,Gillespie,Standard
78676,Wimberley,Hays,Standard
78677,Wrightsboro,Gonzales,Standard
78680,Rock,Williamson,Box
78681,Rock,Williamson,Standard
78682,Rock,Williamson,Unique
78683,Rock,Williamson,Box
78691,Pflugerville,Travis,Box
78701,Austin,Travis,Standard
78702,Austin,Travis,Standard
78703,Austin,Travis,Standard
78704,Austin,Travis,Standard
78705,Austin,Travis,Standard
78708,Austin,Travis,Box
78709,Austin,Travis,Box
78710,Austin,Travis,Standard
78711,Austin,Travis,Box
78712,Austin,Travis,Standard
78713,Austin,Travis,Box
78714,Austin,Travis,Box
78715,Austin,Travis,Box
78716,Austin,Travis,Box
78717,Austin,Williamson,Standard
78718,Austin,Travis,Box
78719,Austin,Travis,Standard
78720,Austin,Travis,Box
78721,Austin,Travis,Standard
78722,Austin,Travis,Standard
78723,Austin,Travis,Standard
78724,Austin,Travis,Standard
78725,Austin,Travis,Standard
78726,Austin,Travis,Standard
78727,Austin,Travis,Standard
78728,Austin,Travis,Standard
78729,Austin,Williamson,Standard
78730,Austin,Travis,Standard
78731,Austin,Travis,Standard
78732,Austin,Travis,Standard
78733,Austin,Travis,Standard
78734,Austin,Travis,Standard
78735,Austin,Travis,Standard
78736,Austin,Travis,Standard
78737,Austin,Hays,Standard
78738,Austin,Travis,Standard
78739,Austin,Travis,Standard
78741,Austin,Travis,Standard
78742,Austin,Travis,Standard
78744,Austin,Travis,Standard
78745,Austin,Travis,Standard
78746,Austin,Travis,Standard
78747,Austin,Travis,Standard
78748,Austin,Travis,Standard
78749,Austin,Travis,Standard
78750,Austin,Travis,Standard
78751,Austin,Travis,Standard
78752,Austin,Travis,Standard
78753,Austin,Travis,Standard
78754,Austin,Travis,Standard
78755,Austin,Travis,Box
78756,Austin,Travis,Standard
78757,Austin,Travis,Standard
78758,Austin,Travis,Standard
78759,Austin,Travis,Standard
78760,Austin,Travis,Box
78761,Austin,Travis,Box
78762,Austin,Travis,Box
78763,Austin,Travis,Box
78764,Austin,Travis,Box
78765,Austin,Travis,Box
78766,Austin,Travis,Box
78767,Austin,Travis,Box
78768,Austin,Travis,Box
78772,Austin,Travis,Unique
78773,Austin,Travis,Unique
78774,Austin,Travis,Unique
78778,Austin,Travis,Unique
78779,Austin,Travis,Unique
78783,Austin,Travis,Unique
78799,Austin,Travis,Standard
78801,Uvalde,Uvalde,Standard
78802,Uvalde,Uvalde,Box
78827,Asherton,Dimmit,Standard
78828,Barksdale,Edwards,Standard
78829,Batesville,Zavala,Standard
78830,Wells,Dimmit,Standard
78832,Brackettville,Kinney,Standard
78833,Wood,Real,Standard
78834,Springs,Dimmit,Standard
78836,Catarina,Dimmit,Box
78837,Comstock,Verde,Standard
78838,Concan,Uvalde,Standard
78839,City,Zavala,Standard
78840,Rio,Verde,Standard
78841,Rio,Verde,Box
78842,Rio,Verde,Box
78843,AFB,Verde,Standard
78847,Rio,Verde,Unique
78850,Hanis,Medina,Standard
78851,Dryden,Terrell,Standard
78852,Pass,Maverick,Standard
78853,Pass,Maverick,Box
78860,Indio,Maverick,Box
78861,Hondo,Medina,Standard
78870,Knippa,Uvalde,Standard
78871,Langtry,Verde,Box
78872,Pryor,Zavala,Box
78873,Leakey,Real,Standard
78877,Quemado,Maverick,Standard
78879,Frio,Real,Standard
78880,Rocksprings,Edwards,Standard
78881,Sabinal,Uvalde,Standard
78883,Tarpley,Bandera,Standard
78884,Utopia,Uvalde,Standard
78885,Vanderpool,Bandera,Standard
78886,Yancey,Medina,Standard
78931,Bleiblerville,Austin,Standard
78932,Carmine,Fayette,Standard
78933,Spring,Austin,Standard
78934,Columbus,Colorado,Standard
78935,Alleyton,Colorado,Standard
78938,Ellinger,Fayette,Standard
78940,Fayetteville,Fayette,Standard
78941,Flatonia,Fayette,Standard
78942,Giddings,Lee,Standard
78943,Glidden,Colorado,Standard
78944,Industry,Austin,Standard
78945,Grange,Fayette,Standard
78946,Ledbetter,Fayette,Standard
78947,Lexington,Lee,Standard
78948,Lincoln,Lee,Standard
78949,Muldoon,Fayette,Standard
78950,Ulm,Austin,Standard
78951,Oakland,Colorado,Box
78952,Plum,Fayette,Box
78953,Rosanky,Bastrop,Standard
78954,Top,Fayette,Standard
78956,Schulenburg,Fayette,Standard
78957,Smithville,Bastrop,Standard
78959,Waelder,Gonzales,Standard
78960,Warda,Fayette,Box
78961,Warrenton,Fayette,Box
78962,Weimar,Colorado,Standard
78963,Point,Fayette,Standard
79001,Adrian,Oldham,Standard
79002,Alanreed,Gray,Box
79003,Allison,Wheeler,Box
79005,Booker,Lipscomb,Standard
79007,Borger,Hutchinson,Standard
79008,Borger,Hutchinson,Box
79009,Bovina,Parmer,Standard
79010,Ranch,Oldham,Box
79011,Briscoe,Wheeler,Standard
79012,Bushland,Potter,Box
79013,Cactus,Moore,Standard
79014,Canadian,Hemphill,Standard
79015,Canyon,Randall,Standard
79016,Canyon,Randall,Unique
79018,Channing,Hartley,Standard
79019,Claude,Armstrong,Standard
79021,Center,Hale,Box
79022,Dalhart,Dallam,Standard
79024,Darrouzett,Lipscomb,Box
79025,Dawn,Smith,Box
79027,Dimmitt,Castro,Standard
79029,Dumas,Moore,Standard
79031,Earth,Lamb,Standard
79032,Edmonson,Hale,Box
79033,Farnsworth,Ochiltree,Box
79034,Follett,Lipscomb,Standard
79035,Friona,Parmer,Standard
79036,Fritch,Hutchinson,Standard
79039,Groom,Carson,Standard
79040,Gruver,Hansford,Standard
79041,Center,Hale,Standard
79042,Happy,Swisher,Standard
79043,Hart,Castro,Standard
79044,Hartley,Hartley,Standard
79045,Hereford,Smith,Standard
79046,Higgins,Lipscomb,Standard
79051,Kerrick,Dallam,Box
79052,Kress,Swisher,Standard
79053,Lazbuddie,Parmer,Box
79054,Lefors,Gray,Box
79056,Lipscomb,Lipscomb,Standard
79057,Mclean,Gray,Standard
79058,Masterson,Moore,Standard
79059,Miami,Roberts,Standard
79061,Mobeetie,Wheeler,Standard
79062,Morse,Hansford,Standard
79063,Nazareth,Castro,Standard
79064,Olton,Lamb,Standard
79065,Pampa,Gray,Standard
79066,Pampa,Gray,Box
79068,Panhandle,Carson,Standard
79070,Perryton,Ochiltree,Standard
79072,Plainview,Hale,Standard
79073,Plainview,Hale,Box
79077,Samnorwood,Collingsworth,Box
79078,Sanford,Hutchinson,Box
79079,Shamrock,Wheeler,Standard
79080,Skellytown,Carson,Standard
79081,Spearman,Hansford,Standard
79082,Springlake,Lamb,Standard
79083,Stinnett,Hutchinson,Standard
79084,Stratford,Sherman,Standard
79085,Summerfield,Castro,Standard
79086,Sunray,Moore,Standard
79087,Texline,Dallam,Standard
79088,Tulia,Swisher,Standard
79091,Umbarger,Randall,Box
79092,Vega,Oldham,Standard
79093,Waka,Ochiltree,Box
79094,Wayside,Armstrong,Standard
79095,Wellington,Collingsworth,Standard
79096,Wheeler,Wheeler,Standard
79097,Deer,Carson,Standard
79098,Wildorado,Oldham,Standard
79101,Amarillo,Potter,Standard
79102,Amarillo,Potter,Standard
79103,Amarillo,Potter,Standard
79104,Amarillo,Potter,Standard
79105,Amarillo,Potter,Box
79106,Amarillo,Potter,Standard
79107,Amarillo,Potter,Standard
79108,Amarillo,Potter,Standard
79109,Amarillo,Randall,Standard
79110,Amarillo,Randall,Standard
79111,Amarillo,Potter,Standard
79114,Amarillo,Randall,Box
79116,Amarillo,Potter,Box
79117,Amarillo,Potter,Box
79118,Amarillo,Randall,Standard
79119,Amarillo,Randall,Standard
79120,Amarillo,Potter,Box
79121,Amarillo,Randall,Standard
79124,Amarillo,Potter,Standard
79159,Amarillo,Potter,Box
79166,Amarillo,Potter,Unique
79168,Amarillo,Potter,Unique
79172,Amarillo,Potter,Unique
79174,Amarillo,Potter,Unique
79178,Amarillo,Potter,Unique
79185,Amarillo,Potter,Unique
79189,Amarillo,Potter,Box
79201,Childress,Childress,Standard
79220,Afton,Dickens,Standard
79221,Aiken,Floyd,Box
79223,Vee,Cottle,Standard
79225,Chillicothe,Hardeman,Standard
79226,Clarendon,Donley,Standard
79227,Crowell,Foard,Standard
79229,Dickens,Dickens,Standard
79230,Dodson,Collingsworth,Standard
79231,Dougherty,Floyd,Box
79233,Estelline,Hall,Box
79234,Flomot,Motley,Standard
79235,Floydada,Floyd,Standard
79236,Guthrie,King,Box
79237,Hedley,Donley,Standard
79239,Lakeview,Hall,Standard
79240,Lake,Donley,Standard
79241,Lockney,Floyd,Standard
79243,Mcadoo,Dickens,Standard
79244,Matador,Motley,Standard
79245,Memphis,Hall,Standard
79247,Odell,Wilbarger,Standard
79248,Paducah,Cottle,Standard
79250,Petersburg,Hale,Standard
79251,Quail,Collingsworth,Standard
79252,Quanah,Hardeman,Standard
79255,Quitaque,Briscoe,Standard
79256,Springs,Motley,Standard
79257,Silverton,Briscoe,Standard
79258,Plains,Floyd,Box
79259,Tell,Childress,Standard
79261,Turkey,Hall,Standard
79311,Abernathy,Hale,Standard
79312,Amherst,Lamb,Standard
79313,Anton,Hockley,Standard
79314,Bledsoe,Cochran,Box
79316,Brownfield,Terry,Standard
79322,Crosbyton,Crosby,Standard
79323,City,Yoakum,Standard
79324,Enochs,Bailey,Standard
79325,Farwell,Parmer,Standard
79326,Fieldton,Lamb,Standard
79329,Idalou,Lubbock,Standard
79330,Justiceburg,Garza,Standard
79331,Lamesa,Dawson,Standard
79336,Levelland,Hockley,Standard
79338,Levelland,Hockley,Box
79339,Littlefield,Lamb,Standard
79342,Loop,Gaines,Standard
79343,Lorenzo,Crosby,Standard
79344,Maple,Bailey,Standard
79345,Meadow,Terry,Standard
79346,Morton,Cochran,Standard
79347,Muleshoe,Bailey,Standard
79350,Deal,Lubbock,Box
79351,Odonnell,Lynn,Standard
79353,Pep,Hockley,Standard
79355,Plains,Yoakum,Standard
79356,Post,Garza,Standard
79357,Ralls,Crosby,Standard
79358,Ropesville,Hockley,Standard
79359,Seagraves,Gaines,Standard
79360,Seminole,Gaines,Standard
79363,Shallowater,Lubbock,Standard
79364,Slaton,Lubbock,Standard
79366,Canyon,Lubbock,Standard
79367,Smyer,Hockley,Box
79369,Spade,Lamb,Box
79370,Spur,Dickens,Standard
79371,Sudan,Lamb,Standard
79372,Sundown,Hockley,Box
79373,Tahoka,Lynn,Standard
79376,Tokio,Yoakum,Standard
79377,Welch,Dawson,Standard
79378,Wellman,Terry,Box
79379,Whiteface,Cochran,Box
79380,Whitharral,Hockley,Box
79381,Wilson,Lynn,Standard
79382,Wolfforth,Lubbock,Standard
79383,Home,Lynn,Box
79401,Lubbock,Lubbock,Standard
79402,Lubbock,Lubbock,Standard
79403,Lubbock,Lubbock,Standard
79404,Lubbock,Lubbock,Standard
79406,Lubbock,Lubbock,Standard
79407,Lubbock,Lubbock,Standard
79408,Lubbock,Lubbock,Box
79409,Lubbock,Lubbock,Standard
79410,Lubbock,Lubbock,Standard
79411,Lubbock,Lubbock,Standard
79412,Lubbock,Lubbock,Standard
79413,Lubbock,Lubbock,Standard
79414,Lubbock,Lubbock,Standard
79415,Lubbock,Lubbock,Standard
79416,Lubbock,Lubbock,Standard
79423,Lubbock,Lubbock,Standard
79424,Lubbock,Lubbock,Standard
79430,Lubbock,Lubbock,Unique
79452,Lubbock,Lubbock,Box
79453,Lubbock,Lubbock,Box
79457,Lubbock,Lubbock,Unique
79464,Lubbock,Lubbock,Box
79490,Lubbock,Lubbock,Box
79491,Lubbock,Lubbock,Unique
79493,Lubbock,Lubbock,Box
79499,Lubbock,Lubbock,Box
79501,Anson,Jones,Standard
79502,Aspermont,Stonewall,Standard
79503,Avoca,Jones,Standard
79504,Baird,Callahan,Standard
79505,Benjamin,Knox,Standard
79506,Blackwell,Nolan,Standard
79508,Gap,Taylor,Standard
79510,Clyde,Callahan,Standard
79511,Coahoma,Howard,Standard
79512,City,Mitchell,Standard
79516,Dunn,Scurry,Box
79517,Fluvanna,Scurry,Standard
79518,Girard,Kent,Standard
79519,Goldsboro,Coleman,Standard
79520,Hamlin,Jones,Standard
79521,Haskell,Haskell,Standard
79525,Hawley,Jones,Standard
79526,Hermleigh,Scurry,Standard
79527,Ira,Scurry,Standard
79528,Jayton,Kent,Standard
79529,City,Knox,Standard
79530,Lawn,Taylor,Standard
79532,Loraine,Mitchell,Standard
79533,Lueders,Jones,Standard
79534,Caulley,Fisher,Standard
79535,Maryneal,Nolan,Standard
79536,Merkel,Taylor,Standard
79537,Nolan,Nolan,Standard
79538,Novice,Coleman,Standard
79539,Brien,Haskell,Standard
79540,Glory,Stonewall,Standard
79541,Ovalo,Taylor,Standard
79543,Roby,Fisher,Standard
79544,Rochester,Haskell,Standard
79545,Roscoe,Nolan,Standard
79546,Rotan,Fisher,Standard
79547,Rule,Haskell,Standard
79548,Rule,Haskell,Standard
79549,Snyder,Scurry,Standard
79550,Snyder,Scurry,Box
79553,Stamford,Jones,Standard
79556,Sweetwater,Nolan,Standard
79560,Sylvester,Fisher,Standard
79561,Trent,Taylor,Standard
79562,Tuscola,Taylor,Standard
79563,Tye,Taylor,Standard
79565,Westbrook,Mitchell,Standard
79566,Wingate,Runnels,Standard
79567,Winters,Runnels,Standard
79601,Abilene,Taylor,Standard
79602,Abilene,Taylor,Standard
79603,Abilene,Taylor,Standard
79604,Abilene,Taylor,Box
79605,Abilene,Taylor,Standard
79606,Abilene,Taylor,Standard
79607,AFB,Taylor,Standard
79608,Abilene,Taylor,Box
79697,Abilene,Taylor,Unique
79698,Abilene,Taylor,Unique
79699,Abilene,Taylor,Unique
79701,Midland,Midland,Standard
79702,Midland,Midland,Box
79703,Midland,Midland,Standard
79704,Midland,Midland,Box
79705,Midland,Midland,Standard
79706,Midland,Midland,Standard
79707,Midland,Midland,Standard
79708,Midland,Midland,Box
79710,Midland,Midland,Box
79711,Midland,Midland,Box
79712,Midland,Midland,Standard
79713,Ackerly,Martin,Standard
79714,Andrews,Andrews,Standard
79718,Balmorhea,Reeves,Standard
79719,Barstow,Ward,Box
79720,Spring,Howard,Standard
79721,Spring,Howard,Box
79730,Coyanosa,Pecos,Box
79731,Crane,Crane,Standard
79733,Forsan,Howard,Box
79734,Davis,Davis,Standard
79735,Stockton,Pecos,Standard
79738,Gail,Borden,Standard
79739,City,Glasscock,Standard
79740,Girvin,Pecos,Standard
79741,Goldsmith,Ector,Standard
79742,Grandfalls,Ward,Box
79743,Imperial,Pecos,Box
79744,Iraan,Pecos,Box
79745,Kermit,Winkler,Standard
79748,Knott,Howard,Standard
79749,Lenorah,Martin,Standard
79752,Camey,Upton,Standard
79754,Mentone,Loving,Box
79755,Midkiff,Upton,Standard
79756,Monahans,Ward,Standard
79758,Gardendale,Ector,Standard
79759,Notrees,Ector,Box
79760,Odessa,Ector,Box
79761,Odessa,Ector,Standard
79762,Odessa,Ector,Standard
79763,Odessa,Ector,Standard
79764,Odessa,Ector,Standard
79765,Odessa,Ector,Standard
79766,Odessa,Ector,Standard
79768,Odessa,Ector,Box
79769,Odessa,Ector,Box
79770,Orla,Reeves,Box
79772,Pecos,Reeves,Standard
79776,Penwell,Ector,Box
79777,Pyote,Ward,Box
79778,Rankin,Upton,Box
79780,Saragosa,Reeves,Box
79781,Sheffield,Pecos,Box
79782,Stanton,Martin,Standard
79783,Tarzan,Martin,Standard
79785,Toyah,Reeves,Box
79786,Toyahvale,Reeves,Box
79788,Wickett,Ward,Box
79789,Wink,Winkler,Box
79821,Anthony,Paso,Standard
79830,Alpine,Brewster,Standard
79831,Alpine,Brewster,Box
79832,Alpine,Brewster,Unique
79834,Park,Brewster,Box
79835,Canutillo,Paso,Standard
79836,Clint,Paso,Standard
79837,City,Hudspeth,Box
79838,Fabens,Paso,Box
79839,Hancock,Hudspeth,Standard
79842,Marathon,Brewster,Box
79843,Marfa,Presidio,Standard
79845,Presidio,Presidio,Box
79846,Redford,Presidio,Box
79847,Flat,Hudspeth,Standard
79848,Sanderson,Terrell,Box
79849,Elizario,Paso,Standard
79851,Blanca,Hudspeth,Box
79852,Terlingua,Brewster,Standard
79853,Tornillo,Paso,Box
79854,Valentine,Presidio,Standard
79855,Horn,Culberson,Box
79901,Paso,Paso,Standard
79902,Paso,Paso,Standard
79903,Paso,Paso,Standard
79904,Paso,Paso,Standard
79905,Paso,Paso,Standard
79906,Paso,Paso,Standard
79907,Paso,Paso,Standard
79908,Paso,Paso,Standard
79910,Paso,Paso,Standard
79911,Paso,Paso,Standard
79912,Paso,Paso,Standard
79913,Paso,Paso,Box
79914,Paso,Paso,Box
79915,Paso,Paso,Standard
79916,Bliss,Paso,Standard
79917,Paso,Paso,Box
79918,Bliss,Paso,Standard
79920,Paso,Paso,Box
79922,Paso,Paso,Standard
79923,Paso,Paso,Box
79924,Paso,Paso,Standard
79925,Paso,Paso,Standard
79926,Paso,Paso,Box
79927,Paso,Paso,Standard
79928,Paso,Paso,Standard
79929,Paso,Paso,Box
79930,Paso,Paso,Standard
79931,Paso,Paso,Box
79932,Paso,Paso,Standard
79934,Paso,Paso,Standard
79935,Paso,Paso,Standard
79936,Paso,Paso,Standard
79937,Paso,Paso,Box
79938,Paso,Paso,Standard
79940,Paso,Paso,Box
79941,Paso,Paso,Box
79942,Paso,Paso,Box
79943,Paso,Paso,Box
79944,Paso,Paso,Box
79945,Paso,Paso,Box
79946,Paso,Paso,Box
79947,Paso,Paso,Box
79948,Paso,Paso,Box
79949,Paso,Paso,Box
79950,Paso,Paso,Box
79951,Paso,Paso,Box
79952,Paso,Paso,Box
79953,Paso,Paso,Box
79954,Paso,Paso,Box
79955,Paso,Paso,Box
79958,Paso,Paso,Unique
79960,Paso,Paso,Unique
79961,Paso,Paso,Unique
79968,Paso,Paso,Unique
79976,Paso,Paso,Unique
79978,Paso,Paso,Unique
79980,Paso,Paso,Unique
79995,Paso,Paso,Box
79996,Paso,Paso,Box
79997,Paso,Paso,Box
79998,Paso,Paso,Box
79999,Paso,Paso,Box
88510,Paso,Paso,Box
88511,Paso,Paso,Box
88512,Paso,Paso,Box
88513,Paso,Paso,Box
88514,Paso,Paso,Box
88515,Paso,Paso,Box
88517,Paso,Paso,Box
88518,Paso,Paso,Box
88519,Paso,Paso,Box
88520,Paso,Paso,Box
88521,Paso,Paso,Box
88523,Paso,Paso,Box
88524,Paso,Paso,Box
88525,Paso,Paso,Box
88526,Paso,Paso,Box
88527,Paso,Paso,Box
88528,Paso,Paso,Box
88529,Paso,Paso,Box
88530,Paso,Paso,Box
88531,Paso,Paso,Box
88532,Paso,Paso,Box
88533,Paso,Paso,Box
88534,Paso,Paso,Box
88535,Paso,Paso,Box
88536,Paso,Paso,Box
88538,Paso,Paso,Box
88539,Paso,Paso,Box
88540,Paso,Paso,Box
88541,Paso,Paso,Box
88542,Paso,Paso,Box
88543,Paso,Paso,Box
88544,Paso,Paso,Box
88545,Paso,Paso,Box
88546,Paso,Paso,Box
88547,Paso,Paso,Box
88548,Paso,Paso,Box
88549,Paso,Paso,Box
88550,Paso,Paso,Box
88553,Paso,Paso,Box
88554,Paso,Paso,Box
88555,Paso,Paso,Box
88556,Paso,Paso,Box
88557,Paso,Paso,Box
88558,Paso,Paso,Box
88559,Paso,Paso,Box
88560,Paso,Paso,Box
88561,Paso,Paso,Box
88562,Paso,Paso,Box
88563,Paso,Paso,Box
88565,Paso,Paso,Box
88566,Paso,Paso,Box
88567,Paso,Paso,Box
88568,Paso,Paso,Box
88569,Paso,Paso,Box
88570,Paso,Paso,Box
88571,Paso,Paso,Box
88572,Paso,Paso,Box
88573,Paso,Paso,Box
88574,Paso,Paso,Box
88575,Paso,Paso,Box
88576,Paso,Paso,Box
88577,Paso,Paso,Box
88578,Paso,Paso,Box
88579,Paso,Paso,Box
88580,Paso,Paso,Box
88581,Paso,Paso,Box
88582,Paso,Paso,Box
88583,Paso,Paso,Box
88584,Paso,Paso,Box
88585,Paso,Paso,Box
88586,Paso,Paso,Box
88587,Paso,Paso,Box
88588,Paso,Paso,Box
88589,Paso,Paso,Box
88590,Paso,Paso,Box
88595,Paso,Paso,Box
